Category,Company Name,Street,Suburb,State,Code,Country,Phone,Website,Mobile,Fax,Postal Address,Email,Longitude,Latitude,Charge Per Session(in dollars)
Hospital Equipment & Supplies,A E Atherton & Sons Pty Ltd,11 Port Wakefield,Gepps Cross,SA,5094,Australia,(08) 8262 9044,victor.kerr@reddiff.com,0441 164 978,(03) 6425 6467,Ap #160-9452 Lorem St.|WA|9393|Australia,non.massa.non@accumsan.com,138.5986,-34.84588,
Hospitals--Public,A Party World,629 Lower North East Rd,Campbelltown,SA,5074,Australia,(08) 8365 1999,heather.roberts@reddiff.com,0430 558 518,(03) 6057 7746,Ap #296-895 Nascetur Av.|TAS|5450|Australia,dapibus.ligula.Aliquam@eleifendegestasSed.ca,138.66385,-34.87719,
Hospital Equipment & Supplies,A.B.C. Of Signs,,Yarrambat,VIC,3091,Australia,(02) 8748 5689,colin.dickens@reddiff.com,0418 353 036,(03) 5460 1163,P.O. Box 281,a@nunc.ca,145.132637,-37.637706,
Hospital Equipment & Supplies,AA Hospital Equipment Co,30 Belu Dr,Glenmore Park,NSW,2745,Australia,(02) 9748 4778,adam.tucker@reddiff.com,0468 753 874,(03) 6076 1432,Ap #892-5852 Metus. St.|NT|8305|Australia,egestas.nunc@et.co.uk,150.672409,-33.789449,
Hospital Equipment & Supplies,AA Maroondah Home Healthcare,34 Railway Ave,Ringwood East,VIC,3135,Australia,(03) 9879 8885,ella.gibson@reddiff.com,0440 573 763,(03) 9537 1750,P.O. Box 999,amet@nisiMauris.ca,145.24899,-37.81284,
Hospital Equipment & Supplies,Abbott Australasia Pty Ltd,666 Doncaster Rd,Doncaster,VIC,3108,Australia,(03) 9843 7100,andrew.nolan@reddiff.com,0429 860 440,(03) 0715 5391,Ap #102-2880 Mollis Av.|SA|7215|Australia,Curabitur.consequat.lectus@nisl.org,145.12935,-37.78774,
Hospital Equipment & Supplies,Able Service,Unit 4/ 16 Dividend St,Mansfield,QLD,4122,Australia,(07) 3349 2555,leonard.paige@reddiff.com,0439 460 820,(03) 5716 5608,P.O. Box 784,ut.molestie.in@vitae.org,153.1034,-27.53182,
Hospital Equipment & Supplies,Abletec Solutions,PO Box 210,Kingsway,WA,6065,Australia,(08) 9409 4150,samantha.knox@reddiff.com,0446 938 566,(03) 3435 0367,Ap #810-692 Vitae St.|WA|7684|Australia,neque.Nullam.ut@congue.org,115.866258,-31.813168,
Hospitals--Public,Aboriginal Health,Morrison St,Camooweal,QLD,4828,Australia,(07) 4748 2000,emily.wallace@reddiff.com,0443 630 634,(03) 1213 3789,8367 Tellus. Ave|SA|6551|Australia,lorem@molestie.co.uk,138.120597,-19.919578,
Hospital Equipment & Supplies,Acetek Systems Pty Ltd,Unit 1/ 105 Derby St,Silverwater,NSW,1811,Australia,(02) 8748 9000,jan.ince@reddiff.com,0493 443 849,(03) 3559 3452,495-8996 Ipsum. St.|WA|8538|Australia,dapibus.ligula@interdumfeugiatSed.ca,151.03811,-33.83333,
Hospital Equipment & Supplies,Acetek Systems Pty Ltd,Unit 1/ 105 Derby St,Silverwater,NSW,2264,Australia,(02) 8748 9000,felicity.wilson@reddiff.com,0408 935 502,(03) 0874 2902,Ap #418-4287 Integer Rd.|NT|5850|Australia,et.magnis.dis@sed.net,151.038108,-33.833325,
Hospital Equipment & Supplies,Ackermann,Unit 3/ 29 Mitchell Rd,Brookvale,NSW,2100,Australia,(02) 9939 0933,peter.watson@reddiff.com,0494 245 889,(03) 2711 7572,P.O. Box 168,tortor.nibh.sit@Fuscefermentumfermentum.org,151.27457,-33.76479,
Hospital Equipment & Supplies,Ackermann,15 Harker St,Burwood,VIC,3125,Australia,(03) 9889 8833,connor.walker@reddiff.com,0467 605 090,(03) 7787 9558,230-1613 Nec Av.|WA|7823|Australia,fames.ac.turpis@metusAenean.ca,145.10444,-37.85337,
Hospital Equipment & Supplies,Acrovyn Wall Protection Systems,1 Endeavour Rd,Caringbah,NSW,2229,Australia,(02) 8543 4000,maria.lyman@reddiff.com,0473 435 221,(03) 9517 8941,P.O. Box 665,dictum@suscipitnonummy.edu,151.13027,-34.03165,
Hospital Equipment & Supplies,Active Rehabilitation Equipment,78 Beischer St,Bendigo East,VIC,3550,Australia,(03) 5441 8722,sam.bond@reddiff.com,0411 392 079,(03) 2163 7603,167-6123 Viverra. Rd.|NT|5912|Australia,est.tempor@Donecvitaeerat.edu,144.30771,-36.75102,
Hospitals--Private,Adelaide Clinic,33 Park Tce,Gilberton,SA,5081,Australia,(08) 8269 8100,heather.dowd@reddiff.com,0419 607 554,(03) 5740 3669,P.O. Box 770,tellus.sem.mollis@etipsumcursus.com,138.61373,-34.90647,
Hospitals--Private,Adelaide Day Surgery,18 North Tce,Adelaide,SA,5000,Australia,(08) 8239 4900,jasmine.arnold@reddiff.com,0481 950 540,(03) 3920 1242,P.O. Box 631,Donec@tellus.edu,138.58887,-34.92264,
Hospital Equipment & Supplies,ADL Health Pty Ltd,Unit 1/ 3 Virgil St,Hyde Park,QLD,4812,Australia,(07) 4772 0066,yvonne.nolan@reddiff.com,0427 458 321,(03) 3576 1632,4344 Vivamus Street|VIC|9482|Australia,mi@aliquet.com,146.7939,-19.27285,
Hospital Equipment & Supplies,Admed Hospital Supplies Pty Ltd,4 Noonan Pl,Ingleburn,NSW,1890,Australia,1300 133 120,molly.mackay@reddiff.com,0483 312 154,(03) 5920 0168,3612 Vitae,lorem@molestieintempus.com,150.86234,-33.98851,
Hospital Equipment & Supplies,Adteck Pty Ltd,U 3c/ 13 Forrester St,Kingsgrove,NSW,2208,Australia,(02) 9554 3222,anne.bell@reddiff.com,0429 245 850,(03) 3364 0765,P.O. Box 429,lacus.Cras@sodalespurusin.ca,151.0973,-33.93887,
Hospital Equipment & Supplies,Advanced Electronic Services,20 Mulsanne Way,Warranwood,VIC,3134,Australia,(03) 9879 0562,christian.peters@reddiff.com,0490 432 635,(03) 4767 3240,3271 Vulputate Rd.|WA|2623|Australia,hymenaeos@euligulaAenean.com,145.24302,-37.77434,
Hospital Equipment & Supplies,Advanced Healthcare Furniture,28 Partridge Crs,Frankston,VIC,3199,Australia,(03) 9770 9011,anna.kerr@reddiff.com,0411 543 410,(03) 0238 0724,P.O. Box 638,fringilla.Donec@felispurus.org,145.15508,-38.17278,
Hospital Equipment & Supplies,Air Liquide Healthcare,25 Campbell St,Bowen Hills,QLD,4006,Australia,1300 360 202,angela.turner@reddiff.com,0443 319 620,(03) 9555 7253,P.O. Box 854,risus.quis.diam@magna.net,153.03677,-27.44741,
Hospital Equipment & Supplies,Air Liquide Healthcare,40 Bunnett St,Sunshine North,VIC,3020,Australia,1300 360 202,jason.north@reddiff.com,0447 909 672,(03) 2234 3603,101-2730 Lorem. St.|NT|1559|Australia,nec.mauris@luctus.ca,144.84239,-37.76313,
Hospital Equipment & Supplies,Air Liquide Healthcare,600 Goodwood Rd,Daw Park,SA,5041,Australia,1300 360 202,leah.scott@reddiff.com,0405 739 219,(03) 2790 8998,319-2027 Aenean Rd.|NSW|4821|Australia,nunc@Inornare.ca,138.591974,-34.98224,
Hospital Equipment & Supplies,Air Liquide Healthcare Pty Ltd,Suite 9/ 9 Scott St,Toowoomba,QLD,4350,Australia,(07) 4639 4844,isaac.dyer@reddiff.com,0405 959 452,(03) 4538 2851,P.O. Box 627,ridiculus.mus.Aenean@egetnisi.ca,151.973789,-27.565943,
Hospital Equipment & Supplies,Akras Engineering,21 Union Rd,Dandenong,VIC,3175,Australia,(03) 9794 7887,jack.terry@reddiff.com,0420 857 366,(03) 8820 6437,P.O. Box 628,risus.quis@netuset.edu,145.20466,-38.00755,
Hospitals--Public,Albany Regional Hospital,Warden Ave,Albany,WA,6330,Australia,(08) 9892 2222,nicholas.skinner@reddiff.com,0441 054 597,(03) 9474 5108,P.O. Box 561,rutrum@uterosnon.edu,117.904479,-35.004791,
Hospitals--Private,Albert Road Clinic,31- 33 Albert Rd,Melbourne,VIC,3004,Australia,(03) 9256 8311,robert.marshall@reddiff.com,0418 557 349,(03) 2210 8659,P.O. Box 187,sit.amet@quamelementum.net,144.972465,-37.834448,
Hospitals--Public,Albury Base Hospital,Borella Rd,Albury,NSW,2640,Australia,(02) 6058 4444,paul.davidson@reddiff.com,0454 463 392,(03) 9684 7618,Ap #497-5054 Facilisis,in.felis@elitfermentumrisus.ca,146.925953,-36.075237,
Hospitals--Private,Albury Day Surgery,4 Baker Crt,West Albury,NSW,2640,Australia,(02) 6041 1511,brandon.arnold@reddiff.com,0442 953 840,(03) 7207 2046,P.O. Box 639,quis@nequeNullam.org,146.88357,-36.07366,
Hospitals--Private,Albury Wodonga Private Hospital,1125 Pemberton St,Albury,NSW,2640,Australia,(02) 6041 1411,lily.bell@reddiff.com,0409 705 075,(03) 8584 7184,P.O. Box 930,amet@sollicitudinadipiscing.org,146.88308,-36.07482,
Hospital Equipment & Supplies,Alert Tech Pty Ltd,,Noble Park,VIC,3174,Australia,1300 885 147,melanie.lee@reddiff.com,0408 338 040,(03) 4430 1879,673-1227 Nec Street|QLD|5270|Australia,pede.malesuada.vel@diamdictumsapien.edu,145.173793,-37.970061,
Hospitals--Public,Alexandra District Hospital,Myrtle St,Alexandra,VIC,3714,Australia,(03) 5772 0900,gordon.randall@reddiff.com,0439 997 240,(03) 1803 4843,P.O. Box 775,Nunc.sollicitudin@nascetur.net,145.714853,-37.194562,
Hospitals--Public,Alfred Hospital,Commercial Rd,Prahran,VIC,3181,Australia,(03) 9276 2000,sean.cornish@reddiff.com,0469 331 879,(03) 5503 0223,P.O. Box 189,mauris.Suspendisse.aliquet@anteVivamusnon.com,144.989584,-37.846272,
Hospitals--Private,Alice Springs Renal Unit,PO Box 4452,Alice Springs,NT,870,Australia,(08) 8955 4900,jan.coleman@reddiff.com,0457 117 790,(03) 3514 2618,Ap #744-3558 Sed St.|VIC|1902|Australia,Proin.vel@Cum.net,133.87823,-23.698143,
Hospitals--Private,Alkira Hostel,35 Marquis St,Gunnedah,NSW,2380,Australia,(02) 6742 4333,diana.davies@reddiff.com,0485 462 393,(03) 3012 9109,874-9250 Feugiat Rd.|NSW|7033|Australia,eleifend.Cras.sed@Aliquam.edu,150.25167,-30.98215,
Hospitals--Private,Allamanda Dialysis Centre,Top Floor Allamanda Medical Centre 25 Spendelove St,Southport,QLD,4215,Australia,(07) 5519 1400,adam.campbell@reddiff.com,0467 611 818,(03) 9637 6885,725-126 Proin St.|NT|2148|Australia,ante.Nunc@Vestibulumante.net,153.407883,-27.973187,
Hospitals--Private,Allamanda Private Hospital,21 Spendelove St,Southport,QLD,4215,Australia,(07) 5532 6444,nicola.bailey@reddiff.com,0430 738 737,(03) 7762 4735,Ap #182-5232 Nulla Road|ACT|2484|Australia,feugiat.tellus.lorem@eu.edu,153.408028,-27.973214,
Hospitals--Private,Allowah Children's Hospital,8 Perry St,Dundas,NSW,2117,Australia,(02) 9858 4994,faith.ross@reddiff.com,0470 198 044,(03) 5410 6881,P.O. Box 978,sed.dolor@blandit.com,151.06389,-33.79183,
Hospitals--Public,Alpha Hospital,Gordon St,Alpha,QLD,4724,Australia,(07) 4985 1100,stewart.robertson@reddiff.com,0448 170 433,(03) 5361 6556,P.O. Box 129,malesuada.ut@idblanditat.org,146.636072,-23.654304,
Hospital Equipment & Supplies,Alpha Medical Supplies Imports Pty Ltd,"Unit 4, 332- 334 Main Rd",Glenorchy,TAS,7010,Australia,(03) 6273 1091,grace.ellison@reddiff.com,0406 084 502,(03) 1075 7943,P.O. Box 263,sagittis@liberoProin.co.uk,147.27928,-42.83397,
Hospitals--Public,Alpine Health,30 O'Donnell Ave,Myrtleford,VIC,3737,Australia,(03) 5751 9300,wendy.turner@reddiff.com,0484 436 652,(03) 2229 8488,5200 Augue Street|NT|4806|Australia,malesuada@hymenaeos.edu,146.72757,-36.554522,
Hospitals--Private,Alvan Park Private Hospital,14 Alvan St,Mt Lawley,WA,6050,Australia,(08) 9370 2500,sarah.peake@reddiff.com,0463 087 462,(03) 2830 4479,P.O. Box 291,Donec@musAeneaneget.org,115.874596,-31.934476,
Hospitals--Private,Alwyn Rehabilitation Hospital,1 Emu St,Strathfield,NSW,2135,Australia,(02) 9744 7161,maria.scott@reddiff.com,0470 250 459,(03) 1059 4577,P.O. Box 994,mattis@facilisiSed.com,151.09435,-33.88285,
Hospital Equipment & Supplies,Ames Medical Equipment Specialists Pty Ltd,99 Campbell St,Hobart,TAS,7000,Australia,(03) 6231 5884,samantha.rees@reddiff.com,0423 283 047,(03) 8291 9270,Ap #792-4830 Natoque Av.|VIC|7898|Australia,lorem.fringilla@vestibulumMaurismagna.co.uk,147.32794,-42.87722,
Hospital Equipment & Supplies,Anaequip Medical Pty Ltd,Unit 6/ 28 Heath St,Lonsdale,SA,5160,Australia,(08) 8382 4855,tracey.randall@reddiff.com,0490 294 403,(03) 0205 5108,P.O. Box 849,euismod.enim.Etiam@Ut.ca,138.5039,-35.11367,
Hospitals--Private,Anaster Residential Care,47 Glen Osmond Rd,Eastwood,SA,5063,Australia,(08) 8271 0264,maria.ogden@reddiff.com,0402 411 600,(03) 4009 0671,Ap #651-3172 Odio. Avenue|ACT|6402|Australia,mattis@lacusNullatincidunt.ca,138.62006,-34.94275,
Hospitals--Private,Andrea Ahern Private Hospital,96 Berrburrum St,Caloundra,QLD,4551,Australia,(07) 5491 1522,evan.may@reddiff.com,0431 829 737,(03) 2850 8019,P.O. Box 173,arcu@et.co.uk,153.12628,-26.78305,
psychiatrist,A Gopinath Dr,269 Kingsgrove Rd,Kingsgrove,NSW,2208,Australia,(02) 9150 9204,diane.mcdonald@reddiff.com,0433 194 015,(03) 5819 8680,134-722 Facilisis,ac@nequeSed.org,151.1013,-33.94305,162
psychiatrist,A. Nashed Dr,Shop 4/ 5 Patrick St,Blacktown,NSW,2148,Australia,(02) 9894 6475,sophie.manning@reddiff.com,0421 224 201,(03) 0155 2147,P.O. Box 197,volutpat@veliteget.ca,150.90631,-33.76928,178
psychiatrist,A. Waverley Family Healthcare,58 Pinewood Drv,Mt Waverley,VIC,3149,Australia,(03) 9802 8000,molly.hardacre@reddiff.com,0427 269 908,(03) 7309 4877,P.O. Box 979,purus.Maecenas.libero@vitaeorciPhasellus.net,145.14453,-37.89022,46
psychiatrist,A.J.K. Fischer,Godfrey Rd,Gobur,VIC,3719,Australia,(03) 5795 1165,molly.hamilton@reddiff.com,0429 247 013,(03) 7027 8182,355-7041 Nibh. Ave|TAS|9136|Australia,nec.enim@est.net,145.6146,-37.014,111
psychiatrist,A.R.F. Younan,46 John Oxley Ave,Werrington,NSW,2747,Australia,(02) 9623 8829,dominic.dyer@reddiff.com,0467 807 361,(03) 1022 9138,P.O. Box 566,fermentum.arcu.Vestibulum@Aeneanegestas.org,150.74626,-33.75073,77
psychiatrist,A.S.M.C. Armadale,1232 High St,Armadale,VIC,3143,Australia,(03) 9509 5922,michael.paige@reddiff.com,0472 260 971,(03) 5970 4768,P.O. Box 428,in.lobortis.tellus@Donecluctus.net,145.02786,-37.85667,152
psychiatrist,A/Pro Philip Craig,"Suite 6, Level 5, 1 South Street St. George Private Medical Complex,",Kogarah,NSW,2217,Australia,(02) 9553 9353,james.manning@reddiff.com,0404 472 678,(03) 1394 4077,P.O. Box 782,mattis.ornare.lectus@dui.org,151.134494,-33.966879,153
psychiatrist,A/Pro Philip Craig,"St George Private Medical Complex Suite 6 / Lvl 5, 1 South St",Kogarah,NSW,2217,Australia,(02) 9553 9353,cameron.dowd@reddiff.com,0416 404 792,(03) 4289 2527,Ap #626-4070 Parturient Avenue|ACT|1906|Australia,magna.Suspendisse.tristique@Etiamgravidamolestie.com,151.136809,-33.966224,55
psychiatrist,A/Prof Arun Aggarwal Neurologist,1/ 190 Victoria Rd,Rozelle,NSW,2039,Australia,(02) 9810 6833,michael.young@reddiff.com,0445 840 409,(03) 4831 2550,3322 Curabitur Rd.|NT|4499|Australia,fermentum.fermentum@atvelit.ca,151.16768,-33.86268,137
psychiatrist,A/Prof Eden John Dr,Level 2 Royal Hospital for Women Barker St,Randwick,NSW,2031,Australia,1300 722 206,diane.watson@reddiff.com,0447 387 459,(03) 7751 7308,4116 Sed Ave|QLD|4635|Australia,vitae.semper.egestas@sed.com,151.238879,-33.921199,150
psychiatrist,A/Prof Pressley Lynne,"Suite 1.09, Mater Clinic 3-9 Gillies St",North Sydney,NSW,2060,Australia,(02) 9923 7150,joan.powell@reddiff.com,0417 127 753,(03) 4746 2387,P.O. Box 199,id.erat@tinciduntvehicula.org,151.201017,-33.832269,125
psychiatrist,A/Prof Svigos John M,Level 2/ 77 King William Rd,North Adelaide,SA,5006,Australia,(08) 8239 2811,anne.wilson@reddiff.com,0447 017 679,(03) 7072 2803,687-1106 Ornare Avenue|NT|1645|Australia,eu.accumsan.sed@Maurisnondui.net,138.59858,-34.9111,92
psychiatrist,Aaron Thornton Dr,141 Cranbourne Rd,Frankston,VIC,3199,Australia,(03) 9783 6670,william.sharp@reddiff.com,0485 531 335,(03) 1806 8083,433-7628 Blandit St.|TAS|1222|Australia,ante.iaculis.nec@blanditat.co.uk,145.14334,-38.14834,42
psychiatrist,AASC - Dr Reed,Ground Floor 174 Victoria Pde,East Melbourne,VIC,3002,Australia,1300 361 030,jack.lyman@reddiff.com,0469 241 707,(03) 1690 0343,Ap #820-8383 Eleifend,luctus.et.ultrices@Crasdictum.net,144.97772,-37.80893,99
psychiatrist,Abadia Jose,222 Tapleys Hill Rd,Seaton,SA,5023,Australia,(08) 8244 4438,carol.reid@reddiff.com,0461 304 568,(03) 8260 8093,837-2177 Varius Rd.|WA|4193|Australia,dolor.Donec.fringilla@egestasAliquamnec.edu,138.51276,-34.88311,108
psychiatrist,Abadia Jose Dr,,West Lakes Shore,SA,5020,Australia,,jack.fisher@reddiff.com,0402 341 992,(03) 4775 1705,5542 Phasellus Street|NSW|9030|Australia,lacinia.at@diam.net,138.485149,-34.864963,109
psychiatrist,Abaul Hassan Syed,"The Market Place Suite 2, Lvl 1 30 Hibberson St",Gungahlin,ACT,2912,Australia,(02) 6255 7007,lily.powell@reddiff.com,0427 026 966,(03) 3689 2494,2517 Sit Avenue|WA|7205|Australia,pede.Praesent.eu@lobortistellusjusto.com,149.133397,-35.18592,123
psychiatrist,Abbotsford Family Medical Practice,409 Great North Rd,Abbotsford,NSW,2046,Australia,(02) 9713 7988,alexander.berry@reddiff.com,0435 834 100,(03) 6456 0069,Ap #139-8045 Congue. Rd.|NT|2786|Australia,mattis.semper@cursusetmagna.net,151.13006,-33.85572,107
psychiatrist,Abraham K,51 Ogilvie St,Denman,NSW,2328,Australia,(02) 6547 3955,sue.smith@reddiff.com,0478 749 868,(03) 7697 9196,Ap #201-3758 Proin Street|VIC|1433|Australia,tellus.faucibus@libero.net,150.68488,-32.38949,96
psychiatrist,Abraham Rick,627 Rode Rd,Chermside,QLD,4032,Australia,(07) 3834 4428,anna.tucker@reddiff.com,0494 367 816,(03) 8856 6975,P.O. Box 327,venenatis@Suspendisseseddolor.co.uk,153.02327,-27.3862,124
psychiatrist,Abraham Robert D A,Suite 602 12 Century Cct,Baulkham Hills,NSW,2153,Australia,(02) 9659 3345,molly.langdon@reddiff.com,0421 877 463,(03) 8182 0094,P.O. Box 354,eget.mollis.lectus@eudoloregestas.co.uk,150.9648,-33.73238,97
psychiatrist,Abraham Roy Dr,1/ 5 Tiwi Garden Rd,Tiwi,NT,810,Australia,(08) 8927 4816,heather.north@reddiff.com,0475 025 390,(03) 3900 9743,616-1334 Tincidunt Rd.|SA|4017|Australia,et@habitantmorbitristique.org,130.879354,-12.359442,114
psychiatrist,"Abraham, Ned A/Prof.",187 Rose Ave,Coffs Harbour,NSW,2450,Australia,(02) 6652 6522,brandon.roberts@reddiff.com,0469 242 387,(03) 2855 0477,Ap #156-1091 Ornare. Av.|NSW|2904|Australia,consequat@mollisDuis.co.uk,153.12332,-30.28874,196
psychiatrist,Abrams Railea Dr,263 Glen Eira Rd,Caulfield North,VIC,3161,Australia,(03) 9528 1222,hannah.rampling@reddiff.com,0432 193 789,(03) 8029 4469,P.O. Box 948,lacus@lobortis.edu,145.01124,-37.87824,124
psychiatrist,Abraszko Renata Dr,"Suite 4, Level 3, 171 Bigge St",Liverpool,NSW,2170,Australia,(02) 9600 7083,sophie.greene@reddiff.com,0411 903 067,(03) 6061 5731,6966 Lobortis Avenue|TAS|2980|Australia,ac@velit.co.uk,150.92636,-33.92156,76
psychiatrist,Abraszko Renata Dr,"Suite 12, Level1, 82-84 Queen St",Campbelltown,NSW,2560,Australia,(02) 4625 2552,rachel.davies@reddiff.com,0480 900 181,(03) 4767 5432,Ap #336-1988 Consequat Av.|QLD|5077|Australia,mauris.sapien.cursus@leoVivamusnibh.net,150.817985,-34.063138,64
psychiatrist,Acar Murat Dr,Mt. Wilga Private Hospital 2 Manor Rd,Hornsby,NSW,1630,Australia,(02) 9847 5000,donna.jackson@reddiff.com,0431 915 425,(03) 0861 3487,P.O. Box 836,netus.et@miac.net,151.0931,-33.69259,50
psychiatrist,Access Health Care,18 Peel St,Tuncurry,NSW,2428,Australia,(02) 6555 5464,stephen.lyman@reddiff.com,0406 867 054,(03) 1890 0106,104 Nascetur Rd.|VIC|1266|Australia,molestie@diamProin.org,152.49785,-32.1761,157
psychiatrist,Access Health Care,1 Bent St,Wingham,NSW,2429,Australia,(02) 6553 4255,max.edmunds@reddiff.com,0431 825 086,(03) 6699 8746,7451 Sit St.|NSW|5691|Australia,cursus.luctus@malesuada.org,152.372068,-31.871787,158
psychiatrist,Achar Keshav,Suite 4/ 764 Princes Hwy,Sutherland,NSW,2232,Australia,(02) 9521 1595,donna.pullman@reddiff.com,0403 502 374,(03) 2289 7747,P.O. Box 612,magna@tinciduntorciquis.co.uk,151.05839,-34.03144,94
psychiatrist,Achuthan Warrier Dr,102 Bray St,Coffs Harbour,NSW,2450,Australia,(02) 6650 0765,ava.kelly@reddiff.com,0411 671 907,(03) 9145 2631,Ap #617-9553 Nam Street|NT|5008|Australia,nisi.Cum.sociis@malesuadaid.co.uk,153.10518,-30.27988,147
psychiatrist,Ackerley Peter Dr,26 Elbow St,West Kempsey,NSW,2440,Australia,(02) 6562 6888,boris.slater@reddiff.com,0463 013 540,(03) 8669 7023,Ap #459-5207 Ante. Av.|QLD|2190|Australia,feugiat.Sed.nec@risusatfringilla.com,152.8311,-31.07994,130
psychiatrist,Acosta Dr R,U3/Lvl 6/ 80 Myers St,Geelong,VIC,3220,Australia,(03) 5222 1515,leonard.dickens@reddiff.com,0432 488 978,(03) 4808 6991,Ap #646-6887 Lacus Avenue|VIC|8848|Australia,iaculis.odio@lorem.net,144.35769,-38.15166,144
psychiatrist,Adam Broad,Ste5/ 80 Myers St,Geelong,VIC,3220,Australia,(03) 5221 8802,amelia.morrison@reddiff.com,0493 882 772,(03) 6120 9361,645-9782 Auctor Ave|QLD|6940|Australia,dis.parturient@sodalespurus.net,144.357691,-38.151656,173
psychiatrist,Adam Rapaport Dr,Suite 5/ 51 Spring St,Bondi Junction,NSW,2022,Australia,(02) 9387 5627,claire.henderson@reddiff.com,0443 165 167,(03) 0065 8147,8576 Nisl. Avenue|QLD|9731|Australia,eu.placerat@sedturpisnec.co.uk,151.24678,-33.89241,138
psychiatrist,Adams A R Willcocks N J Paton R A,7 Star St,Macksville,NSW,2447,Australia,(02) 6568 1288,colin.allan@reddiff.com,0454 784 435,(03) 3497 4754,Ap #608-9172 Consectetuer Rd.|ACT|8326|Australia,dolor.sit@nonummy.edu,152.922,-30.70859,48
psychiatrist,Adams Anne,91 Canterbury Rd,Heathmont,VIC,3135,Australia,(03) 9729 4011,donna.simpson@reddiff.com,0424 088 316,(03) 7114 9021,P.O. Box 757,consectetuer@utpellentesqueeget.org,145.24656,-37.82709,140
psychiatrist,Adams Dr Barbara,28 Hannah St,Beecroft,NSW,2119,Australia,(02) 9484 1222,keith.black@reddiff.com,0470 700 080,(03) 2384 0459,Ap #994-7301 Donec Street|TAS|5929|Australia,pede.Nunc.sed@Integersem.org,151.06401,-33.74939,173
psychiatrist,Adams Dr Brett,876 Pittwater Rd,Dee Why,NSW,2099,Australia,(02) 9971 4557,steven.parr@reddiff.com,0432 434 208,(03) 4140 9328,Ap #789-4459 Curabitur St.|ACT|8477|Australia,ante@lectus.org,151.2862,-33.75326,92
psychiatrist,Adams J Dr,140- 154 Sladen St,Cranbourne,VIC,3977,Australia,(03) 5996 3188,virginia.glover@reddiff.com,0427 701 093,(03) 5499 2939,Ap #946-2034 At,pede.blandit@a.com,145.28064,-38.11333,120
psychiatrist,Adams John,238 Springvale Rd,Glen Waverley,VIC,3150,Australia,(03) 9887 8566,rebecca.ferguson@reddiff.com,0480 312 025,(03) 0003 3093,953-7547 Mi Street|NSW|6920|Australia,lectus@parturientmontesnascetur.ca,145.16643,-37.87852,49
psychiatrist,Adams Peter Dr,10 Grey St,Ringwood East,VIC,3135,Australia,(03) 9870 9999,connor.baker@reddiff.com,0448 262 328,(03) 8936 2791,P.O. Box 450,mauris.eu.elit@sagittisfelis.net,145.25414,-37.80786,49
psychiatrist,Adams Richard,94 George St,Beenleigh,QLD,4207,Australia,(07) 5532 6655,alan.kelly@reddiff.com,0459 294 019,(03) 3394 9404,Ap #392-5799 Quis Rd.|NSW|9090|Australia,est.Nunc@ridiculus.com,153.2041,-27.7163,108
psychiatrist,Adams Richard W,"Pacific Private Clinic Lvl 5, 123 Nerang St",Southport,QLD,4215,Australia,(07) 5591 2627,simon.avery@reddiff.com,0447 565 869,(03) 6924 6022,6446 Dis Av.|VIC|8139|Australia,amet.metus@Duisgravida.net,153.40781,-27.97042,170
psychiatrist,Adams Susan Dr,Sydney Childrens Hospital High St,Randwick,NSW,2031,Australia,(02) 9382 1776,jake.cameron@reddiff.com,0421 486 376,(03) 4273 3367,Ap #942-6843 Tempus Avenue|QLD|9103|Australia,justo.Proin.non@in.net,151.238993,-33.9176575,181
psychiatrist,Adams Tim Dr,Campus Shopping Village 1-3 Faculty Cl,Smithfield (Cairns),QLD,4878,Australia,(07) 4057 7300,diane.davies@reddiff.com,0475 806 712,(03) 1935 2202,P.O. Box 182,tincidunt@parturientmontesnascetur.net,145.69479,-16.820567,199
psychiatrist,"Adams, Dr Stephen P.R.",Flr 1/ 51 Colin St,West Perth,WA,6005,Australia,(08) 9226 1377,michael.vance@reddiff.com,0439 447 916,(03) 9607 2911,950-4693 Ante. Av.|SA|9317|Australia,sed@imperdieteratnonummy.co.uk,115.841487,-31.949336,114
psychiatrist,Adams-Dzierzba R,4 Wood St,Ashfield,NSW,2131,Australia,(02) 9799 8932,victoria.smith@reddiff.com,0470 824 552,(03) 2917 4862,P.O. Box 877,rhoncus.Nullam.velit@eu.com,151.12662,-33.88755,113
psychiatrist,Addison Adelle Dr,441 Algester Rd,Parkinson,QLD,4115,Australia,(07) 3272 6677,neil.clark@reddiff.com,0442 673 547,(03) 0421 4556,P.O. Box 229,consectetuer.adipiscing.elit@eratSed.edu,153.02808,-27.62842,195
psychiatrist,"""Take Control"" Active Rehab",4/ 91 Mulga Rd,Oatley,NSW,2223,Australia,(02) 9570 7800,penelope.davies@reddiff.com,0475 798 360,(03) 3895 2124,Ap #523-6467 Ornare. Rd.|NSW|1928|Australia,vel.mauris.Integer@luctus.org,151.07452,-33.98036,65
psychiatrist,"""Take Control"" Active Rehab & Physiotherapy",Unit 4/ 91 Mulga Rd,Oatley,NSW,2223,Australia,(02) 9570 7800,christian.oliver@reddiff.com,0401 361 896,(03) 7371 6995,Ap #750-1343 Non Ave|SA|9708|Australia,purus.ac@temporloremeget.net,151.07452,-33.98036,186
psychiatrist,@theclinic Alex Mackie - Osteopaths,U 2/ 27 Challis Ave,Potts Point,NSW,2011,Australia,(02) 9380 4668,anne.white@reddiff.com,0451 867 076,(03) 8081 6913,8343 Donec Ave|NT|5852|Australia,dolor@pharetraNam.edu,151.22491,-33.86919,119
psychiatrist,1 2 1 Physio Therapy & Acupuncture,121 Scarborough Beach Rd,Mt Hawthorn,WA,6016,Australia,(08) 9201 2121,diana.mills@reddiff.com,0477 109 979,(03) 1562 9832,6338 Non Avenue|NSW|4343|Australia,accumsan.sed@vulputateposuere.org,115.842584,-31.922863,49
psychiatrist,13th Beach Osteopathy,66 Hitchcock Ave,Barwon Heads,VIC,3227,Australia,(03) 5254 2668,boris.hamilton@reddiff.com,0449 077 257,(03) 4652 1206,Ap #993-7512 Nec Road|NT|1116|Australia,non.leo@massa.edu,144.492223,-38.280458,184
psychiatrist,213 Osteopathy,213 Whitehorse Rd,Blackburn,VIC,3130,Australia,(03) 9894 0213,leah.newman@reddiff.com,0443 025 583,(03) 1224 5942,Ap #819-2468 Eget Street|TAS|5180|Australia,dui.Cras@luctus.co.uk,145.16002,-37.81766,103
psychiatrist,4 Life Physiotherapy,U1/ 25 Rafferty Rd,Mandurah,WA,6210,Australia,(08) 9583 5200,jacob.wallace@reddiff.com,0429 456 692,(03) 7636 1357,156-1903 Tempor St.|TAS|3735|Australia,fringilla@arcueuodio.edu,115.747555,-32.518723,195
psychiatrist,4tfi Physio & Rehab,1382 Sandgate Rd,Nundah,QLD,4012,Australia,(07) 3266 7444,joan.bower@reddiff.com,0446 927 736,(03) 7662 2199,P.O. Box 388,Sed.eu@Vivamuseuismodurna.org,153.058634,-27.398448,89
psychiatrist,8th Avenue Palm Beach Physiotherapy & Sports Injury Clinic,Shop6/ Eighth Ave,Palm Beach,QLD,4221,Australia,(07) 5534 3347,michael.davidson@reddiff.com,0456 156 091,(03) 4171 9654,Ap #180-6510 Auctor Rd.|WA|2872|Australia,porttitor.tellus@variusultrices.edu,153.470435,-28.118749,51
psychiatrist,A & G Lomas,"Grantham Street Medical Centre, 69 Grantham Str",Brunswick,VIC,3056,Australia,(03) 9380 1384,steven.ross@reddiff.com,0407 782 702,(03) 4455 9325,P.O. Box 750,fringilla.porttitor@faucibus.ca,144.94934,-37.77101,166
psychiatrist,A (Tony) Chamberlain,1st Floor 105 St Georges Tce,Perth,WA,6000,Australia,(08) 9322 3363,deirdre.mcdonald@reddiff.com,0491 490 815,(03) 8857 6141,P.O. Box 595,lobortis.augue@mauriserateget.co.uk,115.85693,-31.95493,126
psychiatrist,A Access Care Health Service,,Concord,NSW,2137,Australia,,connor.sutherland@reddiff.com,0419 209 922,(03) 2710 3538,P.O. Box 194,lorem@antelectusconvallis.org,151.103491,-33.857379,83
psychiatrist,A Access Care Health Services,,Sydney,NSW,2000,Australia,,jack.springer@reddiff.com,0419 209 922,(03) 7006 9139,323-6459 Vel,consequat.dolor@in.net,151.206927,-33.870246,85
psychiatrist,A Alpha Physiotherapy Centre,50 Sumners Rd,Sumner,QLD,4074,Australia,(07) 3279 3871,christopher.rees@reddiff.com,0465 860 343,(03) 0888 7889,6814 Odio Ave|SA|3383|Australia,Nunc.ullamcorper@felisDonec.edu,152.93488,-27.560343,51
psychiatrist,A AND G Lomas Physiotherapy At Grantham St Medical Centre,69 Grantham St,Brunswick,VIC,3056,Australia,(03) 9380 1384,kylie.anderson@reddiff.com,0474 367 987,(03) 0331 8720,2983 Purus St.|SA|6231|Australia,pharetra.Nam.ac@nequeMorbi.org,144.94934,-37.77101,146
psychiatrist,A B Physiotherapy,Unit 1D/ 1 Norfolk St,Fremantle,WA,6962,Australia,(08) 9430 7606,leonard.baker@reddiff.com,0450 922 353,(03) 9102 4858,914-4713 Convallis Road|TAS|2343|Australia,blandit@nisl.net,115.74739,-32.05834,55
psychiatrist,"A Body For Life, Osteopathic Medicine","Level 1, Suite 2, 46 Old Barrenjoey Rd",Avalon,NSW,2107,Australia,(02) 9973 3633,dan.burgess@reddiff.com,0459 582 112,(03) 8042 5405,P.O. Box 623,velit.Cras@necluctus.com,151.32894,-33.6378,96
psychiatrist,A Body Of Work,"Shop 3, 116 Cabramatta Rd",Cremorne,NSW,2090,Australia,(02) 9953 0717,kimberly.springer@reddiff.com,0475 645 845,(03) 9066 8130,Ap #114-6161 Magna St.|ACT|1106|Australia,porttitor.scelerisque@sodales.co.uk,151.22937,-33.82939,62
psychiatrist,A Body Of Work,Shop 1/ 1030 - 1034 Pittwater Rd,Collaroy,NSW,2097,Australia,(02) 9982 2500,alexandra.hodges@reddiff.com,0471 807 960,(03) 0268 2748,365 Blandit Av.|TAS|1620|Australia,malesuada.augue@Fuscedolor.edu,151.30283,-33.73656,197
psychiatrist,A C Tony Miller,2/ 107 Boat Harbour Drv,Pialba,QLD,4655,Australia,(07) 4124 5231,audrey.ellison@reddiff.com,0454 707 850,(03) 5619 7427,696-3207 Lorem Ave|VIC|6956|Australia,libero.est@consectetueradipiscingelit.ca,152.83058,-25.28772,167
psychiatrist,A Fine Balance Physiotherapy,14 Green St,Joondanna,WA,6060,Australia,(08) 9444 9663,connor.white@reddiff.com,0419 332 172,(03) 7304 5219,Ap #407-8213 Eu Av.|ACT|1148|Australia,rutrum@Quisque.org,115.844661,-31.913918,183
psychiatrist,A Hapi Physio,661 Compton Rd,Sunnybank Hills,QLD,4109,Australia,(07) 3711 7360,carol.grant@reddiff.com,0482 392 795,(03) 6113 8233,2856 Lobortis Street|TAS|5850|Australia,lacus.vestibulum@sitametluctus.com,153.05556,-27.6104,124
psychiatrist,A J Millman,77 Paisley St,Flynn's Creek Upper,VIC,3544,Australia,(03) 9689 2466,michelle.butler@reddiff.com,0420 168 778,(03) 9102 9934,6878 Condimentum. Ave|NT|6814|Australia,libero@aliquetPhasellus.com,144.896015,-37.800506,132
psychiatrist,A J Physiotherapy,4/ 11 Hollywood Ave,Bondi Junction,NSW,2022,Australia,(02) 9369 4111,emily.jones@reddiff.com,0403 901 728,(03) 1598 8639,Ap #930-2739 Suspendisse Road|NT|9941|Australia,Curabitur.massa@enim.co.uk,151.25142,-33.893164,159
psychiatrist,A Joel Werman & Associates,9/ 283a Miller St,North Sydney,NSW,2060,Australia,(02) 9955 8766,evan.manning@reddiff.com,0478 526 733,(03) 5208 8262,4935 Pellentesque Rd.|SA|7792|Australia,et@maurisblandit.net,151.20846,-33.83313,185
psychiatrist,A Khallouf,"Level 10, MLC Cntr",Sydney,NSW,2000,Australia,(02) 9223 1575,colin.parsons@reddiff.com,0405 998 328,(03) 2294 4416,447-7693 Erat Rd.|VIC|7220|Australia,id.magna.et@convallis.ca,151.20978,-33.86811,178
psychiatrist,A More Than Physio,1234 High St,Armadale,VIC,3143,Australia,(03) 9500 8656,faith.gibson@reddiff.com,0462 119 511,(03) 0633 1792,5565 Bibendum Avenue|VIC|4741|Australia,netus.et.malesuada@lectus.org,145.02791,-37.85667,81
psychiatrist,A More Than Physio,718 Centre Rd,Bentleigh East,VIC,3165,Australia,(03) 9570 1277,carl.bond@reddiff.com,0487 440 484,(03) 8579 6503,Ap #808-2638 Aliquet St.|NSW|6711|Australia,sodales@ProinultricesDuis.com,145.05802,-37.92127,191
psychiatrist,A Multi Health Centre,4 Noelana St,Sunnybank Hills,QLD,4109,Australia,(07) 3273 5022,angela.white@reddiff.com,0456 304 652,(03) 9249 3427,6459 Ullamcorper. Street|VIC|1076|Australia,Cras.convallis@metus.com,153.05826,-27.59852,99
psychiatrist,A Physiotherapy @ Re Creation Medical Group,1232 High St,Armadale,VIC,3143,Australia,(03) 9509 5922,jake.pullman@reddiff.com,0419 624 885,(03) 9742 7131,"Ap #129-2921 Non, Av.|WA|5485|Australia",Suspendisse.sagittis.Nullam@non.org,145.02786,-37.85667,134
psychiatrist,A Premier Sports & Spinal Medicine,Cnr Nicholson & Holden Sts,Fitzroy North,VIC,3068,Australia,(03) 9481 7794,virginia.howard@reddiff.com,0447 476 288,(03) 2203 0770,"P.O. Box 734, 5425 Convallis Road|SA|1369|Australia",Cum.sociis@velfaucibusid.co.uk,144.978279,-37.778915,33
psychiatrist,A Way 2 Go Physiotherapy,"Unit 4, 850 North Lake Rd",Cockburn Central,WA,6164,Australia,(08) 9417 2777,diana.marshall@reddiff.com,0441 493 110,(03) 1626 9812,7893 Accumsan Ave|VIC|9564|Australia,accumsan.interdum.libero@duiFuscealiquam.ca,115.84967,-32.12174,44
psychiatrist,A Wilston Physiotherapy,38 Lamont Rd,Wilston,QLD,4051,Australia,(07) 3856 5395,thomas.underwood@reddiff.com,0492 792 593,(03) 7858 1028,P.O. Box 625,pharetra.Nam@lacinia.co.uk,153.01709,-27.43386,59
psychiatrist,A. Chu,23 Hassall St Cnr Wigram,Parramatta,NSW,2150,Australia,(02) 9893 8838,diana.gray@reddiff.com,0451 182 518,(03) 7579 3258,Ap #581-6122 Sit St.|ACT|6864|Australia,iaculis.nec.eleifend@faucibus.com,151.00993,-33.81785,58
psychiatrist,A. Chu,470 Church St,North Parramatta,NSW,2151,Australia,(02) 9635 9199,joan.abraham@reddiff.com,0425 350 064,(03) 1589 6822,918-5935 Varius Street|TAS|1302|Australia,enim@ac.net,151.0062,-33.80489,101
psychiatrist,A. Martin Krause,"Suite 705, 107 Walker St",North Sydney,NSW,2060,Australia,(02) 9922 6806,neil.macdonald@reddiff.com,0428 014 699,(03) 5466 6997,"Ap #164-5615 Id, Rd.|ACT|9512|Australia",at.pede@vitaeposuere.com,151.2091,-33.83898,82
psychiatrist,"A. Mitchell, Maria Zuluaga & Robyn Teed",343 Lt Collins St,Melbourne,VIC,3000,Australia,(03) 9670 3996,gordon.tucker@reddiff.com,0425 117 869,(03) 2700 8985,679 Quis,In.condimentum@orciDonec.co.uk,144.96343,-37.81528,69
psychiatrist,A.G Physiotherapy,10-12 Amy St,Campsie,NSW,2194,Australia,(02) 9718 7793,zoe.metcalfe@reddiff.com,0424 396 675,(03) 9058 0501,665 Per Ave|QLD|1995|Australia,consectetuer@etultricesposuere.ca,151.103319,-33.912344,110
psychiatrist,A.H.M.C. Physiotherapy And Sports Injury Centre,"Ste 1, 41- 45 Rickard Rd",Bankstown,NSW,2200,Australia,(02) 9708 3611,phil.lambert@reddiff.com,0488 796 124,(03) 1794 0742,P.O. Box 963,tempor@sem.ca,151.03797,-33.91433,86
psychiatrist,A.L.S Physiotherapy,Cnr Spring & Ramsay Sts,Toowoomba,QLD,4350,Australia,(07) 4613 6420,ryan.baker@reddiff.com,0476 049 549,(03) 8448 5279,2553 Phasellus Rd.|WA|6062|Australia,tincidunt@ullamcorperviverraMaecenas.com,151.959526,-27.602271,63
psychiatrist,A.P.S. Therapy,1067 Doncaster Rd,Doncaster East,VIC,3109,Australia,(03) 9859 8955,nathan.edmunds@reddiff.com,0472 277 598,(03) 0309 9454,"P.O. Box 457, 6358 Velit. Rd.|TAS|1792|Australia",quis.turpis.vitae@aptent.org,145.16617,-37.78937,172
psychiatrist,A1 Sports & Spinal Physiotherapy,420 Warrigal Rd,Moorabbin,VIC,3189,Australia,1300 366 284,lily.mcgrath@reddiff.com,0484 494 683,(03) 5131 0244,274-5134 Neque Street|TAS|8101|Australia,justo@iaculisenim.net,145.07774,-37.949,102
psychiatrist,AA Physiotherapy & Sports Injury Clinic,,Murwillumbah,NSW,2484,Australia,,sonia.morrison@reddiff.com,0456 912 431,(03) 6779 2900,897 Ante Rd.|NSW|5156|Australia,blandit@neque.org,153.385944,-28.332933,60
psychiatrist,AA Summit Physiotherapy,"Level 2, 44 Miller St",North Sydney,NSW,2060,Australia,(02) 9966 1347,matt.ogden@reddiff.com,0497 673 095,(03) 2398 1052,Ap #918-8289 Aliquet Street|ACT|9999|Australia,lobortis.quis.pede@fringillaDonecfeugiat.net,151.206607,-33.84022,41
psychiatrist,AAA Happy Valley Physiotherapy & Sports Injury Centre,"Unit 1, 194 Chandlers Hill Rd",Happy Valley,SA,5159,Australia,(08) 8381 8777,samantha.young@reddiff.com,0453 685 008,(03) 7216 6263,617-1840 Integer Rd.|NSW|9017|Australia,amet.consectetuer@sed.net,138.58711,-35.0868,187
psychiatrist,AAA Melbourne City Physiotherapy,City Medical Centre Telstra Building 68 Lonsdale,Melbourne,VIC,3000,Australia,(03) 9639 9600,diane.springer@reddiff.com,0482 078 899,(03) 4571 8088,5565 Bibendum Avenue|VIC|4741|Australia,turpis.Aliquam@adipiscingelit.net,144.970239,-37.809697,71
psychiatrist,Aalpha Physiotherapy Centre,109 Gladstone Rd,Highgate Hill,QLD,4101,Australia,(07) 3846 2598,faith.churchill@reddiff.com,0480 870 656,(03) 4480 7412,Ap #808-2638 Aliquet St.|NSW|6711|Australia,eu.odio@felisNullatempor.co.uk,153.01832,-27.48803,40
psychiatrist,Aaron Salisbury,"Shop 12, 156 Spring Street (cnr Ramsay Street)",Toowoomba,QLD,4350,Australia,(07) 4613 6420,sam.mcdonald@reddiff.com,0414 353 689,(03) 0451 5076,6459 Ullamcorper. Street|VIC|1076|Australia,non@sagittissemper.net,151.96007,-27.602374,165
psychiatrist,AB Physiotherapy,"Unit 1D, 1 Norfolk St",Fremantle,WA,6160,Australia,(08) 9433 4193,isaac.hudson@reddiff.com,0412 096 456,(03) 1967 0136,"Ap #129-2921 Non, Av.|WA|5485|Australia",Mauris.vestibulum@vestibulum.edu,115.74739,-32.05834,58
psychiatrist,Abbey Paul R,15 Atchison St,Wollongong,NSW,2500,Australia,(02) 4229 2335,julia.mcgrath@reddiff.com,0417 292 497,(03) 7144 0406,"P.O. Box 734, 5425 Convallis Road|SA|1369|Australia",non.enim.Mauris@diam.com,150.89102,-34.42714,93
psychiatrist,Abbott Liz,"Suite 9, Corinna Chambers, 36 Corinna St",Woden,ACT,2606,Australia,(02) 6282 5010,elizabeth.wilkins@reddiff.com,0466 027 368,(03) 1937 1058,7116 Lectus St.|NT|2350|Australia,consequat@elitelit.org,149.08392,-35.3465,190
psychiatrist,Abbott Therapies Clinic,162 Kitchener Rd,Ascot,QLD,4007,Australia,(07) 3216 4988,wendy.hunter@reddiff.com,0417 102 898,(03) 4495 9351,572-370 Mauris Road|SA|5878|Australia,magna.Nam@sagittis.org,153.062286,-27.429615,134
psychiatrist,Abdelmalak Gina,,Sydenham,VIC,3037,Australia,(03) 9390 3033,bernadette.dickens@reddiff.com,0468 247 147,(03) 1230 8026,P.O. Box 698,eu.arcu.Morbi@bibendum.co.uk,144.764447,-37.700961,61
psychiatrist,Abdullah John,144 Boundary Rd,Peakhurst,NSW,2210,Australia,(02) 9584 9364,kevin.nash@reddiff.com,0439 221 650,(03) 1600 2019,Ap #925-7597 Elit,Donec.luctus.aliquet@libero.org,151.0665,-33.96133,87
psychiatrist,Aberfoyle Park Physiotherapy,Cnr Summerford Rd & Manning Rd,Aberfoyle Park,SA,5159,Australia,(08) 8370 7300,anthony.short@reddiff.com,0489 838 382,(03) 3913 1930,P.O. Box 238,a.facilisis.non@ipsum.co.uk,138.595348,-35.061923,86
psychiatrist,Abigail Browne,Unit 8A/ 271 Selby St,Churchlands,WA,6018,Australia,(08) 9284 0388,sebastian.anderson@reddiff.com,0460 189 677,(03) 4925 7768,Ap #249-5637 Ante,Maecenas.mi@nulla.ca,115.80415,-31.93253,111
psychiatrist,Ability Physiotherapy,Ground Floor 13 Cavenagh St,Darwin,NT,800,Australia,(08) 8941 1609,jonathan.poole@reddiff.com,0475 200 249,(03) 5873 5844,732-7242 Malesuada Rd.|ACT|4970|Australia,amet.ornare.lectus@nullaante.net,130.84359,-12.46353,33
psychiatrist,Abrams Daniel,330 High St,Ashwood,VIC,3147,Australia,(03) 9885 8961,simon.cornish@reddiff.com,0408 755 719,(03) 2242 1520,Ap #175-5398 Metus. Avenue|NT|1206|Australia,non@cubilia.net,145.091943,-37.86552,66
psychiatrist,Abshot Physiotherapy,37 Locke St,Warwick,QLD,4370,Australia,(07) 4661 1161,michael.graham@reddiff.com,0449 922 643,(03) 3811 8177,Ap #337-4000 Eu,vel@estNunclaoreet.net,152.02422,-28.22421,135
psychiatrist,Absolute Hydrotherapy,45-95 Ballarat Rd,Geelong North,VIC,3215,Australia,,dominic.parsons@reddiff.com,0418 148 618,(03) 9073 1247,Ap #812-1678 Ornare,leo.elementum@ut.co.uk,144.33543,-38.12208,170
psychiatrist,Absolute Injury Management,"Level 1, 7-13 Post Office Pl",Traralgon,VIC,3844,Australia,,jan.paige@reddiff.com,0421 952 896,(03) 1156 6598,417-8567 Nullam Rd.|TAS|8022|Australia,Donec.luctus@necmalesuadaut.com,146.538801,-38.195695,91
psychiatrist,Absolute Injury Management,"Level 1, 7-13 Post Office Pl",Traralgon,VIC,3844,Australia,,robert.jones@reddiff.com,0419 761 192,(03) 6758 4936,924-651 Quisque Ave|ACT|9176|Australia,pede@Nuncmaurissapien.edu,146.538801,-38.195695,63
psychiatrist,Absolute Physio & Rehab,,Greenbank,QLD,4124,Australia,,carl.tucker@reddiff.com,0403 831 768,(03) 7809 4259,P.O. Box 773,nisi.Aenean.eget@Nunc.co.uk,152.970729,-27.717781,164
psychiatrist,Absolute Physio & Rehab,60 - 68 Braemer Rd,North Maclean,QLD,4280,Australia,,sam.gray@reddiff.com,0403 831 768,(03) 3987 5341,P.O. Box 364,sociis@mollis.co.uk,152.987,-27.775274,97
psychiatrist,Absolute Physiotherapy,"Level 1, 286-300 Chapel St",Prahran,VIC,3181,Australia,(03) 9529 2200,lauren.mclean@reddiff.com,0459 094 674,(03) 9997 6473,Ap #713-4852 Phasellus Av.|ACT|3491|Australia,ipsum@non.co.uk,,,30
psychiatrist,Absolute Physiotherapy,131 High St,Prahran,VIC,3181,Australia,(03) 9510 3555,sam.mackenzie@reddiff.com,0457 810 972,(03) 2129 8045,Ap #481-4146 Accumsan Av.|NSW|6045|Australia,aliquam.iaculis@quisaccumsan.co.uk,144.99134,-37.85136,99
psychiatrist,Absolute Physiotherapy,1/ 11 Walan St,Mooloolaba,QLD,4557,Australia,(07) 5478 2333,jake.mills@reddiff.com,0442 817 027,(03) 9515 0650,P.O. Box 682,nec@adipiscingelit.org,153.118247,-26.681751,141
Physiotherapists,Acacia Health and Physiotherapy,Bilyara House 1a Bilyara Rd,Tanunda,SA,5352,Australia,(08) 8563 0410,christian.carr@reddiff.com,0435 175 106,(03) 2825 8863,P.O. Box 919,tempus@velit.edu,138.960603,-34.522673,
Physiotherapists,Acacia Health and Physiotherapy,1a Bilyara Rd,Tanunda,SA,5352,Australia,(08) 8563 0410,leah.ferguson@reddiff.com,0411 429 933,(03) 2210 0459,P.O. Box 756,nibh@atauctorullamcorper.ca,138.960538,-34.522867,
Physiotherapists,Acacia Ridge Physiotherapy,In Chemmart Pharmacy 14/ 28 Elizabeth St,Acacia Ridge,QLD,4110,Australia,,olivia.simpson@reddiff.com,0409 073 417,(03) 9387 5358,371-9965 Iaculis Road|WA|5371|Australia,ut.sem.Nulla@eu.net,153.02711,-27.58947,
Physiotherapists,Acacia Ridge Physiotherapy,Chemmart Pharmacy 14/ 28 Elizabeth St,Acacia Ridge,QLD,4110,Australia,(07) 3277 4220,ava.hudson@reddiff.com,0404 004 760,(03) 8013 2768,Ap #247-2554 Ultrices Av.|VIC|7812|Australia,Duis.a@arcuiaculis.co.uk,153.02711,-27.58947,
Physiotherapists,Accent Physiotherapy & Rehabilitation Services,"Lords Sports Complex, 3 Price St",Subiaco,WA,6008,Australia,(08) 9388 0533,julia.north@reddiff.com,0421 964 884,(03) 0683 2158,P.O. Box 313,diam.Sed@facilisiSedneque.net,115.815907,-31.946743,
Physiotherapists,Accent Physiotherapy & Rehabilitation Services,Lords Sports Complex 3 Price St,Jolimont,WA,6014,Australia,(08) 9388 0533,phil.paige@reddiff.com,0461 340 548,(03) 8308 1626,5014 Mauris Rd.|WA|2787|Australia,bibendum@sitamet.edu,115.750624,-32.062755,
Osteopaths,Access Back Care Stephen Thwaites Osteopathic Clinic,Ste101/ 29 Newland St,Bondi Junction,NSW,2022,Australia,(02) 9388 9211,charles.lawrence@reddiff.com,0447 289 268,(03) 7319 1377,765-2217 Sagittis Ave|WA|1387|Australia,Nulla.facilisis.Suspendisse@nislelementum.org,151.24679,-33.89297,
Physiotherapy Equipment,Access Health,Unit 1 / Rear 196 Whitehorse Rd,Blackburn,VIC,3130,Australia,1300 659 540,yvonne.fisher@reddiff.com,0441 814 389,(03) 1782 9984,P.O. Box 291,nisl.arcu.iaculis@gravidasitamet.co.uk,145.13988,-37.81894,
Physiotherapy Equipment,Access Health,,Kirrawee,NSW,2232,Australia,1300 659 540,wendy.martin@reddiff.com,0457 429 810,(03) 5886 7416,Ap #360-4787 Nec Road|TAS|9642|Australia,quis@montesnasceturridiculus.com,151.073078,-34.032309,
Physiotherapy Equipment,Access Health Pty Ltd,283 Canterbury Rd,Canterbury,VIC,3126,Australia,1800 337 799,virginia.white@reddiff.com,0470 482 980,(03) 1624 8409,6408 Et Avenue|QLD|2438|Australia,vitae@nuncestmollis.net,145.08407,-37.82402,
Physiotherapy Equipment,Access Health Pty Ltd,27 Munro Ave,Kirrawee,NSW,2232,Australia,1800 337 799,justin.walsh@reddiff.com,0448 197 049,(03) 8450 4615,772-9576 Nec Rd.|WA|8461|Australia,netus.et.malesuada@velitjustonec.ca,151.07355,-34.03071,
Physiotherapists,"Accident, Sports & Spinal Physiotherapy",2nd Floor 12 Collins St,Melbourne,VIC,3000,Australia,(03) 9650 1347,charles.hill@reddiff.com,0431 474 088,(03) 2623 4451,Ap #912-9847 Dictum Ave|WA|8189|Australia,dignissim.Maecenas@euerosNam.edu,144.9731,-37.81316,
Physiotherapists,"Accident, Sports & Spinal Physiotherapy","Level 2, 12 Collins St",Melbourne,VIC,3000,Australia,(03) 9663 3865,thomas.dickens@reddiff.com,0480 143 758,(03) 1041 7888,921 Vestibulum,congue@quis.edu,144.973102,-37.813156,
Physiotherapists,ACE Sports Medicine,Hibiscus Sports Complex 90 Klumpp Rd,Upper Mt Gravatt,QLD,4122,Australia,(07) 3349 5733,julia.randall@reddiff.com,0404 277 360,(03) 0335 0277,Ap #462-1141 Enim Avenue|ACT|6923|Australia,laoreet@nequenon.org,153.073078,-27.551921,
Osteopaths,Ache Relief Spinal & Sports Clinic,"Suite 317, 3 Flr Exchange Towe 530 Little Collins St",Melbourne,VIC,3000,Australia,(03) 9909 7250,wanda.dowd@reddiff.com,0415 642 224,(03) 9020 5722,787-7404 Massa. Rd.|NT|7794|Australia,cursus.Integer.mollis@Mauris.com,144.95709,-37.81687,
Physiotherapists,Aches & Pains Physiotherapy,U3/ 203 Canley Vale Rd,Canley Heights,NSW,2166,Australia,(02) 9726 4654,connor.kerr@reddiff.com,0400 427 836,(03) 5024 7318,P.O. Box 964,gravida@nunc.ca,150.92756,-33.8839,
Physiotherapists,Action Physio - The Hills,1 Church St,Kallista,VIC,3791,Australia,(03) 9755 1990,tracey.gibson@reddiff.com,0405 214 433,(03) 5136 9727,P.O. Box 319,mi.lacinia.mattis@Maecenas.org,145.369991,-37.884695,
Physiotherapists,Action Physio & Rehab Centre,833 Anzac Pde,Maroubra Junction,NSW,2035,Australia,(02) 9349 2613,piers.murray@reddiff.com,0431 027 692,(03) 6237 8124,4764 Dolor Rd.|ACT|5643|Australia,interdum.feugiat.Sed@Aliquam.edu,151.239402,-33.943912,
Physiotherapists,Action Physio Regina Larard,61 Stewart Ave,Hamilton South,NSW,2303,Australia,(02) 4940 8300,joan.stewart@reddiff.com,0465 190 109,(03) 1706 4055,Ap #531-163 Dis Ave|NSW|6563|Australia,Donec@ametrisus.org,151.753611,-32.931875,
Physiotherapists,Action Physiotherapy,61 Stewart Ave,Hamilton South,NSW,2303,Australia,(02) 4940 8300,sarah.lyman@reddiff.com,0417 107 242,(03) 2139 5243,675-848 Id Av.|VIC|3328|Australia,Proin.eget.odio@eratnequenon.net,151.753775,-32.931973,
Physiotherapists,Action Physiotherapy,61 Stewart Ave,Hamilton South,NSW,2303,Australia,(02) 4940 8300,amelia.lyman@reddiff.com,0418 175 705,(03) 5181 7130,P.O. Box 694,mauris.rhoncus.id@auctorullamcorpernisl.com,151.753775,-32.931973,
Physiotherapists,Action Physiotherapy & Rehab Centre,833 Anzac Pde,Maroubra Junction,NSW,2035,Australia,(02) 9349 2613,owen.wilson@reddiff.com,0408 178 213,(03) 8423 0337,P.O. Box 453,tellus@purus.org,151.2394,-33.94411,
Physiotherapists,Action Physiotherapy & Rehab Centre,"833 Anzac Pde,",Maroubra,NSW,2035,Australia,(02) 9349 2613,stephanie.oliver@reddiff.com,0480 334 960,(03) 3832 2113,Ap #938-3223 Mi Rd.|NSW|4523|Australia,lobortis.augue@mauris.ca,151.2394,-33.94411,
Physiotherapists,Action Plus Physiotherapy,102 Longueville Rd,Lane Cove,NSW,2066,Australia,(02) 9420 1221,brian.paterson@reddiff.com,0461 936 966,(03) 5930 9259,8865 Nisl Ave|SA|5850|Australia,mauris.Integer@ridiculus.ca,151.17034,-33.81379,
Physiotherapists,Action Plus Physiotherapy Sports & Hand Clinic,"Shp7, Ground Flr, 102-104 Longueville Rd",Lane Cove,NSW,2066,Australia,(02) 9420 1221,stephanie.springer@reddiff.com,0443 311 996,(03) 0048 5442,Ap #849-2154 Mauris St.|WA|8401|Australia,mollis@mattis.com,151.17031,-33.81384,
Physiotherapists,Action Plus Physiotherapy Sports & Hand Clinic,"Shop7, 102-104 Longueville Rd",Lane Cove,NSW,2066,Australia,(02) 9420 1221,nicola.campbell@reddiff.com,0452 721 635,(03) 0118 0758,Ap #157-1639 Ac St.|QLD|9836|Australia,sed.turpis@ultricies.net,151.170324,-33.813821,
Physiotherapists,Action Sports & Spinal Physiotherapy,26 Raymond St,Blackburn,VIC,3130,Australia,,brian.dowd@reddiff.com,0410 543 186,(03) 4416 3816,P.O. Box 583,Vivamus.euismod.urna@rhoncusProinnisl.edu,145.155489,-37.80467,
Physiotherapists,Action Sports & Spinal Physiotherapy,2 Henty St,Dandenong,VIC,3175,Australia,(03) 9791 8757,frank.martin@reddiff.com,0479 729 188,(03) 4121 3233,981-3920 Urna Rd.|ACT|2572|Australia,Etiam.laoreet.libero@dolorelitpellentesque.edu,145.21222,-37.98174,
Physiotherapists,Action Sports & Spinal Physiotherapy,2 Henty St,Dandenong,VIC,3175,Australia,(03) 9791 8757,andrea.wallace@reddiff.com,0434 208 490,(03) 2733 9555,Ap #644-5014 Lectus. St.|VIC|6668|Australia,ante.ipsum@etlibero.co.uk,145.212219,-37.98174,
Physiotherapists,Actioncare Physiotherapy & Sports Injury Centres,Suite 2 152a Waterloo,Greenacre,NSW,2190,Australia,(02) 9740 4373,liam.lyman@reddiff.com,0454 268 378,(03) 8586 0521,Ap #820-2692 Ultricies Rd.|SA|4086|Australia,eu.dui@pharetrafelis.net,151.05685,-33.90747,
Physiotherapists,Actioncare Physiotherapy & Sports Injury Centres,"Suite 1, 41 Rickard Rd",Bankstown,NSW,2200,Australia,(02) 9708 3611,sam.allan@reddiff.com,0494 282 023,(03) 0665 6595,232 Curabitur St.|TAS|9018|Australia,cursus.Integer@egetlacus.edu,151.03797,-33.91433,
Physiotherapists,Activate,"Suite 4, level 1, 63 Johnston St",Annandale,NSW,2038,Australia,(02) 9518 5009,carolyn.harris@reddiff.com,0448 999 532,(03) 0551 3686,419-3327 Auctor Street|NSW|7461|Australia,accumsan.convallis@vehicularisusNulla.com,151.17035,-33.88334,
Physiotherapists,Activate Physiotherapy,696 New Cleveland Rd,Gumdale,QLD,4154,Australia,(07) 3890 4361,ryan.macdonald@reddiff.com,0412 455 076,(03) 2262 0293,5326 Auctor Street|WA|5334|Australia,dictum@arcuNuncmauris.net,153.153129,-27.490879,
Physiotherapists,Active 8 Physiotherapy & Sports Injury Clinic,Shp 12b/ 40 Panmure St,Rouse Hill,NSW,2155,Australia,(02) 8883 2209,diana.cornish@reddiff.com,0469 854 493,(03) 2496 0976,9597 Nibh. Street|NSW|2320|Australia,facilisis.magna.tellus@Aliquamgravida.edu,150.91707,-33.68325,
Physiotherapists,Active Action Physiotherapy,2 Sunrise Drv,Greensborough,VIC,3088,Australia,(03) 9432 0055,brian.murray@reddiff.com,0408 976 955,(03) 4837 8406,"P.O. Box 934, 7790 Ac St.|NT|6979|Australia",Donec.fringilla@Suspendisseacmetus.net,145.12028,-37.68297,
Osteopaths,Active Balance Sports And Spinal,16 Kirtain Drv (Adj. To McAdam Square),Croydon,VIC,3136,Australia,(03) 9016 8366,connor.sanderson@reddiff.com,0456 900 900,(03) 1660 7153,Ap #613-3264 Enim. Av.|QLD|8460|Australia,Praesent.interdum.ligula@Nunclectuspede.ca,145.269538,-37.783439,
Osteopaths,Active Balance Sports And Spinal Osteopathic Clinic,16 Kirtain Drv,Croydon,VIC,3136,Australia,(03) 9016 8366,austin.hill@reddiff.com,0418 962 319,(03) 4027 1789,3283 Facilisis St.|QLD|9245|Australia,Etiam.imperdiet.dictum@purussapiengravida.edu,145.269538,-37.783439,
Physiotherapists,Active Bodies Physiotherapy,43 Carrington St,Adelaide,SA,5000,Australia,(08) 8231 2983,stephen.skinner@reddiff.com,0486 280 447,(03) 2099 2207,"4889 Iaculis, Avenue|QLD|2726|Australia",Mauris.eu@et.edu,138.60195,-34.93164,
Physiotherapists,Active Body Physiotherapy & Rehabilitation,Suite 1/ 56 Cecil Ave,Castle Hill,NSW,2154,Australia,(02) 9899 8242,karen.dowd@reddiff.com,0403 465 608,(03) 6539 2001,"P.O. Box 584, 5844 Mauris Road|SA|6259|Australia",molestie@ultriciesdignissim.ca,151.00175,-33.7337,
Physiotherapists,Active Care,"Suite 706, 3 Waverley St",Bondi Junction,NSW,2022,Australia,(02) 9387 3448,sean.ball@reddiff.com,0403 979 425,(03) 3053 4499,595-5030 Sagittis Rd.|WA|1885|Australia,fermentum.risus.at@metussitamet.com,151.25148,-33.89283,
Physiotherapists,Active Care Physio & Sports Therapy,"Suite 706, 3 Waverley St",Bondi Junction,NSW,2022,Australia,(02) 9387 3448,evan.mackay@reddiff.com,0446 088 201,(03) 5841 5708,"6190 Pharetra, Street|NT|7379|Australia",cursus.Nunc.mauris@ac.org,151.251491,-33.892831,
Physiotherapists,Active Care Physiotherapy,"Suite 16, Lvl 2, Chermside Medical Complex, 956 Gympie Rd",Chermside,QLD,4032,Australia,(07) 3350 2622,david.newman@reddiff.com,0465 944 539,(03) 8896 2634,Ap #805-278 Dignissim Av.|NT|4443|Australia,Donec@Maecenasliberoest.org,153.029598,-27.380996,
Physiotherapists,Active Care Physiotherapy,147 Redland Bay Rd,Capalaba,QLD,4157,Australia,(07) 3823 5423,jonathan.ferguson@reddiff.com,0490 224 125,(03) 0956 2237,3170 Magnis Rd.|WA|2644|Australia,lorem@cubilia.com,153.19887,-27.53318,
Physiotherapists,Active Care Physiotherapy,"Suite 16, Level 2 Chermside Medical Complex, 956 Gympie Rd Chermside 4032",Chermside,QLD,4032,Australia,(07) 3350 2622,sarah.peters@reddiff.com,0444 393 108,(03) 5480 3250,1384 Mattis. St.|SA|1454|Australia,diam.nunc@molestietortornibh.org,153.029618,-27.382206,
Physiotherapists,Active Care Physiotherapy,147 Redland Bay Rd,Capalaba,QLD,4157,Australia,(07) 3823 5423,jason.knox@reddiff.com,0492 095 104,(03) 6355 3546,"P.O. Box 970, 4420 Non, St.|SA|1071|Australia",ipsum.non.arcu@sollicitudinadipiscingligula.net,153.198866,-27.533184,
Physiotherapists,Active Care Physiotherapy & Sports Therapy,"Suite 706, Level 7, 3 Waverley St",Bondi Junction,NSW,2022,Australia,(02) 9387 3448,joanne.fraser@reddiff.com,0417 239 675,(03) 9726 8763,Ap #857-2323 Vitae Avenue|WA|6364|Australia,nunc@imperdietornareIn.ca,151.25148,-33.89283,
Physiotherapists,Active Care Physiotherapy and Sports Therapy,"Suite 706, Lvl 7 3 Waverley St",Bondi Junction,NSW,2022,Australia,(02) 9387 3448,fiona.welch@reddiff.com,0453 413 398,(03) 4013 1588,343-5973 Penatibus Rd.|NSW|8503|Australia,pede@etmalesuada.ca,151.25148,-33.89283,
Physiotherapists,Active Care Physiotherapy Group,Cnr Station & Scott St,Lalor,VIC,3075,Australia,(03) 9464 4211,sam.mathis@reddiff.com,0439 557 071,(03) 8795 8247,Ap #938-5364 Ipsum. Ave|QLD|8994|Australia,magna.a.tortor@ultrices.org,145.015419,-37.67481,
Physiotherapists,Active Care Physiotherapy Group,314 Bell St,Preston,VIC,3072,Australia,(03) 9484 7392,amelia.mills@reddiff.com,0426 696 399,(03) 9853 4123,"P.O. Box 489, 7801 Senectus Av.|WA|5163|Australia",Suspendisse.sed@euismod.org,145.00558,-37.74519,
Physiotherapists,Active Care Spinal Clinic,27B Gladstone Park Drv,Gladstone Park,VIC,3043,Australia,(03) 9338 7774,diane.butler@reddiff.com,0402 153 406,(03) 6803 7146,"P.O. Box 619, 815 Arcu. Ave|ACT|1850|Australia",congue.elit.sed@risus.edu,144.88295,-37.68851,
Physiotherapists,Active Care Spinal Clinic,258 Settlement Rd,Thomastown,VIC,3074,Australia,(03) 9465 4144,christopher.smith@reddiff.com,0416 908 792,(03) 0203 2873,"Ap #998-5903 Quam, Street|TAS|9381|Australia",nonummy.ac.feugiat@lobortisquam.edu,145.02963,-37.69295,
Physiotherapists,Active Edge Physiotherapy,96 Cleveland St,Stones Corner,QLD,4120,Australia,(07) 3394 4364,emily.bailey@reddiff.com,0432 883 838,(03) 1387 7774,6015 Pede Street|VIC|5763|Australia,erat.vitae@luctus.org,153.04603,-27.50232,
Physiotherapists,Active For Life Physiotherapy Remedial Massage & Fitness Coaching Service,Shop 7B Singleton Town Sq,Singleton,NSW,2330,Australia,,max.knox@reddiff.com,0417 772 917,(03) 7750 5690,1928 Mi Rd.|ACT|3011|Australia,a@ullamcorperDuis.org,151.17839,-32.566551,
Physiotherapists,Active Health Berowra Physiotherapy,Berowra Medical Centre 1a Turner Rd,Berowra Heights,NSW,2082,Australia,(02) 9456 2051,sarah.ball@reddiff.com,0486 561 933,(03) 9561 3176,"8662 Vitae, Ave|NT|5253|Australia",montes@scelerisque.ca,151.13806,-33.6124,
Osteopaths,Active Health Osteopath,Cnr Reserve and Hargraves Road,Upper Coomera,QLD,4209,Australia,(07) 5580 6075,andrew.parr@reddiff.com,0420 026 094,(03) 4394 9171,641-2904 Et St.|SA|2550|Australia,nunc@adipiscing.co.uk,153.305002,-27.870229,
Physiotherapists,Active Health Physiotherapy & Sports Injury Centre,Shp 3 Appletree Shopng Cntr 132 Shepherds Drv,Cherrybrook,NSW,2126,Australia,(02) 9484 0344,lily.marshall@reddiff.com,0463 288 960,(03) 9206 5158,"P.O. Box 602, 3244 Ultricies Rd.|VIC|8994|Australia",non@diam.co.uk,151.0438605,-33.7207425,
Physiotherapists,Active Health Solutions,17- 19 Arnold St,Box Hill,VIC,3128,Australia,(03) 9898 2400,christopher.butler@reddiff.com,0429 403 168,(03) 1039 0671,229-9607 Id Rd.|NT|9521|Australia,enim@elitdictum.edu,145.11686,-37.81438,
Physiotherapists,Active Health Solutions,145 Blackburn Rd,Doncaster East,VIC,3109,Australia,(03) 9841 7924,eric.graham@reddiff.com,0450 828 590,(03) 8547 4592,"P.O. Box 273, 4370 Sociosqu Rd.|NT|8870|Australia",quam.Curabitur.vel@Integereu.ca,145.161472,-37.789944,
Physiotherapists,Active Injury Management,211 Juliette St,Greenslopes,QLD,4120,Australia,(07) 3848 9654,grace.james@reddiff.com,0472 220 346,(03) 1108 2023,"P.O. Box 102, 6555 Tincidunt Rd.|NT|2308|Australia",Donec@massa.edu,153.048268,-27.505897,
Physiotherapists,Active Life,Suite 1/119- 121 Lethbridge St,Penrith,NSW,2750,Australia,(02) 4721 5567,stewart.hemmings@reddiff.com,0444 287 444,(03) 6265 4753,"Ap #771-5363 Eu, Road|NT|5413|Australia",sem.consequat.nec@ligulaNullamenim.org,150.700518,-33.756147,
Physiotherapists,Active Life Physiotherapy,9 Queen St,Murwillumbah,NSW,2484,Australia,1300 065 538,amanda.rutherford@reddiff.com,0409 908 364,(03) 1173 3965,"P.O. Box 733, 7483 Congue. St.|TAS|6818|Australia",consectetuer@commodo.ca,153.399989,-28.32593,
Physiotherapists,Active Life Physiotherapy,"Casuarina Beach Rec Club, 9 Queen St,",Murwillumbah,NSW,2484,Australia,1300 065 538,jonathan.roberts@reddiff.com,0447 606 017,(03) 1243 3583,Ap #124-9111 Vehicula. Rd.|TAS|1988|Australia,Ut.tincidunt.vehicula@Donecnibh.net,153.399989,-28.32593,
Physiotherapists,Active Lifestyle Physiotherapy,Genesis Building Shop 37/ 74 Rawson St,Epping,NSW,2121,Australia,(02) 9869 1970,robert.paige@reddiff.com,0422 493 872,(03) 6392 5297,Ap #190-5482 Maecenas Road|NT|1595|Australia,ipsum.porta.elit@Suspendisse.org,151.08046,-33.77169,
Physiotherapists,Active Motion Physiotherapy,Shp2/ 46-48 Blaxland Rd,Ryde,NSW,2112,Australia,(02) 9807 4437,katherine.burgess@reddiff.com,0407 396 802,(03) 1563 4424,Ap #316-2783 Hendrerit Avenue|TAS|5170|Australia,nascetur.ridiculus.mus@lobortismaurisSuspendisse.org,151.107172,-33.814907,
Osteopaths,Active Osteopathy,"Suite 8, 77 Mill Point Rd",South Perth,WA,6151,Australia,,leah.harris@reddiff.com,0430 062 099,(03) 4193 5507,548-3836 Amet Rd.|TAS|9396|Australia,quis.diam.Pellentesque@Crasvulputatevelit.edu,115.849812,-31.971088,
Physiotherapists,Active Physiotherapy,501 Waverley Rd,Mt Waverley,VIC,3149,Australia,(03) 9803 2786,bernadette.chapman@reddiff.com,0413 335 447,(03) 1930 0205,6325 Varius Av.|ACT|3306|Australia,Proin.vel@nuncinterdum.co.uk,145.14297,-37.88613,
Physiotherapists,Active Physiotherapy,44 Howick St,Launceston,TAS,7250,Australia,(03) 6331 9562,sarah.rees@reddiff.com,0499 230 916,(03) 6581 6906,178-6105 Nullam Road|WA|7148|Australia,orci@Vivamus.com,147.14159,-41.44834,
Physiotherapists,Active Physiotherapy,,Kununurra,WA,6743,Australia,,megan.skinner@reddiff.com,0429 012 277,(03) 8299 0545,"P.O. Box 760, 1608 Diam Av.|NSW|4004|Australia",blandit.viverra@faucibusMorbi.edu,128.742125,-15.769062,
Physiotherapists,Active Physiotherapy,501 Waverley Rd,Mt Waverley,VIC,3149,Australia,(03) 9803 8422,benjamin.vaughan@reddiff.com,0458 187 366,(03) 6775 8077,"P.O. Box 414, 1809 Ornare, Rd.|NT|3114|Australia",adipiscing@imperdietullamcorperDuis.ca,145.142972,-37.886129,
Physiotherapists,Active Physiotherapy,Newtown Business Centre 1 Erskineville Rd,Newtown,NSW,2042,Australia,(02) 9519 4913,jonathan.tucker@reddiff.com,0424 644 400,(03) 9281 6620,685-4270 Luctus Ave|ACT|1746|Australia,neque.pellentesque@elit.ca,151.18036,-33.89685,
Physiotherapists,Active Physiotherapy,Cnr Meurant Ave & Lewisham Ave,Wagga Wagga,NSW,2650,Australia,(02) 6925 7734,luke.brown@reddiff.com,0482 460 659,(03) 6350 9929,Ap #412-9963 Ac Avenue|QLD|6097|Australia,nunc.ullamcorper.eu@luctusfelispurus.org,147.354117,-35.120702,
Physiotherapists,Active Physiotherapy,"Cnr Cunningham and Archibald Sts, (The Red Building)",Dalby,QLD,4405,Australia,(07) 4662 3422,karen.clarkson@reddiff.com,0481 553 617,(03) 4910 1417,2519 Duis Road|WA|5376|Australia,consectetuer.euismod.est@gravidasagittisDuis.ca,151.265288,-27.182148,
Physiotherapists,Active Physiotherapy,The Sports Clinic Western Ave Uni Of Syd,Sydney,NSW,2000,Australia,(02) 9351 8118,sarah.clarkson@reddiff.com,0479 097 096,(03) 3579 1405,"566-4516 Eget, Ave|QLD|4175|Australia",Suspendisse.non.leo@purusmaurisa.com,151.206927,-33.870246,
Physiotherapists,Active Physiotherapy,1 Erskineville Rd,Newtown,NSW,2042,Australia,(02) 9519 4913,victor.ross@reddiff.com,0429 519 117,(03) 2892 2776,"P.O. Box 454, 7465 Nulla Rd.|SA|2071|Australia",nulla.vulputate@semPellentesqueut.ca,151.18036,-33.89685,
Physiotherapists,Active Physiotherapy Centre,1 Lewisham Ave,Wagga Wagga,NSW,2650,Australia,(02) 6925 7734,edward.scott@reddiff.com,0456 498 599,(03) 4761 8044,"2915 Amet, Ave|SA|8196|Australia",lectus.rutrum.urna@Etiamgravidamolestie.com,147.35458,-35.12059,
Physiotherapists,Active Physiotherapy Group,U3/ 3 Trappers Drv,Woodvale,WA,6026,Australia,(08) 9309 3166,rebecca.walsh@reddiff.com,0454 259 060,(03) 6996 6715,Ap #212-8878 At St.|NT|6574|Australia,tellus.non@ac.co.uk,115.7957,-31.79833,
Physiotherapists,Active Physiotherapy Group,PO Box 237,Kwinana,WA,6167,Australia,(08) 9439 2333,charles.dyer@reddiff.com,0499 950 075,(03) 9646 9389,"3836 Enim, Road|QLD|6117|Australia",egestas@parturientmontesnascetur.org,115.812265,-32.243517,
Physiotherapists,Active Physiotherapy Katherine,"YMCA Building, Lot 2525 Stuart Highway",Katherine,NT,850,Australia,(08) 8971 2505,boris.mackenzie@reddiff.com,0471 401 975,(03) 1481 1870,8929 Mi Ave|QLD|7409|Australia,diam.Sed.diam@justosit.org,132.260433,-14.463132,
Physiotherapists,Active Physiotherapy Katherine,"YMCA Building, Lot 2525 Stuart Hwy, Katherine NT 0851",Katherine,NT,851,Australia,(08) 8971 2505,emily.may@reddiff.com,0475 305 298,(03) 0013 5378,363-9748 Egestas St.|QLD|1223|Australia,lacinia.mattis.Integer@enimconsequat.co.uk,132.264256,-14.464966,
Physiotherapists,Active Physiotherapy Mackay,169 Shakespeare St,Mackay,QLD,4740,Australia,(07) 4953 3557,anthony.alsop@reddiff.com,0419 707 550,(03) 0953 5765,"319-9106 At, Rd.|VIC|7964|Australia",elit.pharetra.ut@vulputateduinec.com,149.186502,-21.147782,
Physiotherapists,Active Physiotherapy Mackay,169 Shakespeare St,Mackay,QLD,4740,Australia,(07) 4953 2550,gavin.hart@reddiff.com,0443 119 030,(03) 1779 0848,Ap #337-7826 Nullam St.|NSW|1799|Australia,at.fringilla@Sedcongue.edu,149.186502,-21.147782,
Physiotherapists,Active Physiotherapy Solutions,"Shop 1, 222 Walker St",Bundaberg,QLD,4670,Australia,(07) 4152 2682,warren.nolan@reddiff.com,0462 711 880,(03) 1676 2439,Ap #423-6571 Interdum Rd.|WA|3512|Australia,lobortis@eget.org,152.330879,-24.877432,
Physiotherapists,Active Physiotherapy Solutions,Shop 1/ 222 Walker St,Bundaberg,QLD,4670,Australia,(07) 4152 2678,anthony.north@reddiff.com,0427 510 106,(03) 5213 5600,501-7211 Natoque St.|NT|1608|Australia,neque.venenatis@nullamagna.ca,152.330879,-24.877432,
Physiotherapists,Active Physiotherapy-Sports Injury & Rehabilitation Centre,Cnr Lewisham & Meurant Ave,Wagga Wagga,NSW,2650,Australia,(02) 6925 7734,tim.fraser@reddiff.com,0447 603 210,(03) 1998 2551,8294 Nulla Rd.|ACT|2110|Australia,feugiat.metus@auctorveliteget.edu,147.354207,-35.120684,
Pharmacies,23rd Avenue Chempro Chemist,Cnr Townson Ave & Mawarra St,Palm Beach,QLD,4221,Australia,(07) 5576 2866,angela.miller@reddiff.com,0439 945 254,(03) 4808 0030,"352-2394 Non, Ave|WA|7298|Australia",bibendum.ullamcorper@amet.com,153.460857,-28.107385,
Pharmaceutical Products--W'salers & Mfrs,3 M Pharmaceuticals Pty Ltd,9 Chilvers Rd,Thornleigh,NSW,2120,Australia,(02) 9875 6293,jacob.rees@reddiff.com,0472 464 980,(03) 9401 3273,2346 Turpis Rd.|ACT|5139|Australia,nibh.Donec@mauriserat.ca,151.08227,-33.72341,
Pharmacies,777 Photographic Plus,Karatha Village Shopping Centre 33 Sharp Ave,Karratha Town Centre,WA,6714,Australia,(08) 9144 4007,warren.lambert@reddiff.com,0414 242 706,(03) 4338 4583,1267 Nec Road|ACT|3245|Australia,tincidunt.neque.vitae@sitamet.com,116.843043,-20.735091,
Pharmacies,A & N Chemist Pty Ltd,45 Joslin St,Kotara,NSW,2289,Australia,(02) 4957 6452,simon.vaughan@reddiff.com,0437 602 478,(03) 1434 4313,4816 Purus Street|NSW|8682|Australia,vitae.sodales.at@amalesuadaid.co.uk,151.699049,-32.944976,
Pharmaceutical Products--W'salers & Mfrs,A Little Bit Of Relief,346 Bay St,Brighton-le-Sands,NSW,2216,Australia,(02) 9599 6999,olivia.scott@reddiff.com,0425 538 247,(03) 4916 5323,"P.O. Box 389, 957 Urna, Avenue|WA|3100|Australia",mauris.aliquam.eu@dictum.ca,151.15404,-33.95973,
Pharmaceutical Products--W'salers & Mfrs,A P I (Qld) Pty Ltd,72 Supply Rd,Edmonton,QLD,4869,Australia,(07) 4045 4111,trevor.wallace@reddiff.com,0423 648 527,(03) 0634 6069,Ap #970-4673 Et Rd.|ACT|1119|Australia,tristique@elementum.net,145.74235,-17.00241,
Pharmacies,A. Beaumont Hall Amcal Pharmacy,226 High St,Kangaroo Flat,VIC,3555,Australia,(03) 5445 7426,jonathan.wilkins@reddiff.com,0424 086 457,(03) 4266 7108,442 Ipsum Road|QLD|8836|Australia,lacinia.at@vulputatedui.com,144.24129,-36.80359,
Pharmacies,A.C.K. Pharmacy,86 Pacific Hwy,Roseville,NSW,2069,Australia,(02) 9412 1036,neil.butler@reddiff.com,0485 838 767,(03) 0133 9337,"P.O. Box 158, 9286 Donec Av.|QLD|5938|Australia",rutrum.magna@lobortisquispede.net,151.17709,-33.78503,
Pharmaceutical Products--W'salers & Mfrs,A.D.P. Pharmaceutical Pty Ltd,377 Sussex St,Sydney,NSW,2000,Australia,(02) 9283 3388,kylie.vaughan@reddiff.com,0447 050 418,(03) 0529 1126,"P.O. Box 394, 9429 Nisl. Rd.|VIC|8226|Australia",non.sollicitudin.a@auctor.edu,151.20442,-33.87725,
Pharmaceutical Products--W'salers & Mfrs,A.P.I (WA) Australian Pharmaceutical Industries,127 Pilbara St,Welshpool,WA,6106,Australia,(08) 9350 0000,nicola.howard@reddiff.com,0457 588 777,(03) 8390 6763,1193 Cras Street|NSW|9956|Australia,vitae.aliquam.eros@feugiatmetus.net,115.94742,-31.98651,
Pharmacies,A.P.I. Health Care Chemists,102 Briens Rd,Northmead,NSW,2152,Australia,(02) 9683 0683,luke.parr@reddiff.com,0467 376 832,(03) 6909 0289,Ap #855-7461 Ridiculus Street|ACT|8862|Australia,ligula.elit.pretium@egetmagnaSuspendisse.net,150.98871,-33.7976,
Pharmacies,AAA Fairfield Chemist,5/ 9 Nelson St,Fairfield,NSW,2165,Australia,(02) 9725 7250,claire.north@reddiff.com,0400 827 678,(03) 1053 0519,744-7126 Netus St.|SA|1957|Australia,sed@montesnasceturridiculus.org,150.95474,-33.86913,
Pharmacies,Abbotsford Point Pharmacy,551 Great North Rd,Abbotsford,NSW,2046,Australia,(02) 9712 1100,diane.harris@reddiff.com,0414 251 986,(03) 5695 5578,Ap #698-7951 Feugiat Rd.|NSW|4697|Australia,Fusce@diamSeddiam.co.uk,151.12784,-33.84814,
Pharmacies,ABC Pharmacy,984b Hunter St,Newcastle West,NSW,2302,Australia,,mary.glover@reddiff.com,0468 913 262,(03) 4356 1416,8042 Non St.|NSW|9406|Australia,Maecenas.ornare@augueporttitor.edu,151.756269,-32.924045,
Pharmacies,Aberfoyle Village Pharmacy,Aberfoyle Village Shopping Centre,Aberfoyle Park,SA,5159,Australia,(08) 8370 5785,justin.nolan@reddiff.com,0473 324 684,(03) 6224 4120,"400-6489 Elit, Street|QLD|2485|Australia",id@eleifendnec.org,138.599241,-35.07012,
Pharmacies,Acacia Marketplace Chemist,Shop 9-10 1150 Beaudesert Rd,Acacia Ridge,QLD,4110,Australia,(07) 3277 2460,zoe.bailey@reddiff.com,0457 833 470,(03) 1817 3945,"P.O. Box 660, 3369 Cras Street|NSW|5730|Australia",mi@Duiscursus.org,153.025494,-27.57688,
Pharmacies,Acacia Pharmacy,1459 Beaudesert Rd,Acacia Ridge,QLD,4110,Australia,(07) 3277 4030,phil.paterson@reddiff.com,0455 661 769,(03) 6499 5631,"P.O. Box 363, 7406 Non, Rd.|NSW|1051|Australia",ut.lacus.Nulla@sitamet.co.uk,153.025795,-27.576679,
Pharmacies,Acacia Ridge Day & Night Chemist,14/ 28 Elizabeth St,Acacia Ridge,QLD,4110,Australia,(07) 3277 4220,anthony.chapman@reddiff.com,0493 033 955,(03) 5110 5333,196-2936 Sed Av.|TAS|1828|Australia,vulputate.ullamcorper.magna@ipsumdolor.co.uk,153.02711,-27.58947,
Pharmacies,Acher's Pharmacy,312 Racecourse Rd,Flemington,VIC,3031,Australia,(03) 9376 6302,lauren.vaughan@reddiff.com,0486 285 437,(03) 0094 7171,858-8261 Nunc Road|VIC|3138|Australia,enim.commodo.hendrerit@amet.co.uk,144.93032,-37.78789,
Pharmacies,Acland Court Pharmacy,160 Acland St,St Kilda,VIC,3182,Australia,(03) 9525 5111,kimberly.smith@reddiff.com,0483 596 203,(03) 0938 6699,"P.O. Box 273, 1269 Ullamcorper Rd.|TAS|5481|Australia",ut@Curabitur.co.uk,144.9806,-37.86911,
Pharmacies,Active Pharmacy,451 Keilor Rd,Niddrie,VIC,3042,Australia,(03) 9379 2034,ian.thomson@reddiff.com,0467 625 459,(03) 1556 2959,3306 Eleifend Ave|SA|7010|Australia,pharetra.ut.pharetra@justo.ca,144.890221,-37.736796,
Pharmacies,Active Physiotherapy Pty Ltd,501 Waverley Rd,Mt Waverley,VIC,3149,Australia,(03) 9803 8422,evan.black@reddiff.com,0467 879 546,(03) 4242 7159,"Ap #612-7912 Eleifend, St.|ACT|9726|Australia",erat@Etiamligulatortor.co.uk,145.14297,-37.88613,
Pharmaceutical Products--W'salers & Mfrs,Acuity Vision Systems,28 Prime Drv,Seven Hills,NSW,2147,Australia,(02) 9838 7755,diane.carr@reddiff.com,0491 605 129,(03) 2736 5829,2285 Lobortis Street|QLD|1162|Australia,pharetra@egetipsum.co.uk,150.953487,-33.772612,
Pharmacies,Ada & Flynn Pharmacy,64 Prince St,Grafton,NSW,2460,Australia,(02) 6642 2099,luke.ellison@reddiff.com,0448 038 361,(03) 8379 1671,"Ap #787-5531 Congue, Av.|SA|3330|Australia",sem.mollis@enim.org,152.9345,-29.69064,
Pharmacies,Adam Remboulis Pharmacy,Gisborne Rd,Bacchus Marsh,VIC,3340,Australia,(03) 5367 4700,thomas.greene@reddiff.com,0444 156 154,(03) 8320 9238,168-8920 Erat St.|QLD|9470|Australia,aliquam.eu@eusem.co.uk,144.437124,-37.669497,
Pharmacies,Adams Pharmacy,413 Nepean Hwy,Chelsea,VIC,3196,Australia,(03) 9772 1126,sam.lewis@reddiff.com,0459 644 718,(03) 2233 4773,260 Metus. Street|NSW|7307|Australia,lectus.quis@miDuis.ca,145.11577,-38.05287,
Pharmacies,Adelaide Compounding Pharmacy,4/ 151 Glynburn Rd,Firle,SA,5070,Australia,(08) 8361 2999,theresa.hemmings@reddiff.com,0405 551 007,(03) 9772 1764,823 Ridiculus Rd.|NSW|2250|Australia,Integer@tempordiam.com,138.657519,-34.90423,
Pharmacies,Adore Pharmacy,671 Darling St,Rozelle,NSW,2039,Australia,(02) 9810 7349,tim.payne@reddiff.com,0426 656 202,(03) 6782 6431,680-8441 Fringilla Street|VIC|4061|Australia,luctus.vulputate@adipiscingelit.co.uk,151.16971,-33.86385,
Pharmacies,Advance Pharmacies,524 Ipswich Rd,Annerley,QLD,4103,Australia,(07) 3848 4989,gordon.gibson@reddiff.com,0494 766 179,(03) 5112 3104,6540 Dis Rd.|VIC|4951|Australia,dui@velvulputateeu.com,153.03219,-27.51192,
Pharmaceutical Products--W'salers & Mfrs,Advanced Pharmaceuticals,PO Box 1808,West Perth,WA,6872,Australia,(08) 9480 0477,ella.bailey@reddiff.com,0422 494 911,(03) 4174 3442,"P.O. Box 298, 6968 Sed St.|ACT|8388|Australia",aliquet@leoMorbineque.ca,0,0,
Pharmacies,Advantage Pharmacy Ararat,119 Barkly St,Ararat,VIC,3377,Australia,(03) 5352 1007,caroline.buckland@reddiff.com,0491 338 842,(03) 1648 2374,783-1752 Vivamus Rd.|WA|5451|Australia,orci.luctus@consectetuer.edu,142.92929,-37.28378,
Pharmacies,Advantage Pharmacy Churchill,7 West Pl,Churchill,VIC,3842,Australia,(03) 5122 1390,sophie.carr@reddiff.com,0494 236 533,(03) 2172 7503,483-1874 Mauris. Street|NSW|9802|Australia,parturient.montes@blandit.org,146.420632,-38.313759,
Pharmacies,Advantage Pharmacy Glenroy,796G Pascoe Vale Rd,Glenroy,VIC,3046,Australia,(03) 9306 7274,liam.reid@reddiff.com,0491 054 665,(03) 9568 8649,963-8092 Nunc Rd.|TAS|3730|Australia,penatibus.et.magnis@viverraDonectempus.net,144.916071,-37.705795,
Pharmacies,Advantage Pharmacy Kerrimuir,537 Middleborough Rd,Box Hill North,VIC,3129,Australia,(03) 9890 2352,brian.simpson@reddiff.com,0464 081 257,(03) 7942 8545,961 Fusce Street|NT|8663|Australia,Nunc.sed@Nullamvitae.net,145.1402,-37.80827,
Pharmacies,Advantage Pharmacy Lakeside,"Shop 9 Lakeside Village Centre, Lakeside Blv",Pakenham,VIC,3810,Australia,(03) 5940 2900,anthony.wallace@reddiff.com,0427 373 092,(03) 1994 8820,Ap #860-8237 Mollis St.|NT|4944|Australia,auctor.odio@sitametluctus.co.uk,151.548379,-33.277056,
Pharmacies,Advantage Pharmacy Park Hill Plaza,"Shop 2, 215- 225 Parkhill Drv",Berwick,VIC,3806,Australia,(03) 9705 7999,matt.ferguson@reddiff.com,0415 774 445,(03) 6309 8651,418 Neque Ave|VIC|9363|Australia,amet.ultricies.sem@nullaante.net,145.32267,-38.0143,
Pharmacies,Advantage Pharmacy Parkhill,"Shop 2, Parkhill Plaza, Parkhill Dr",Berwick,VIC,3806,Australia,(03) 9705 7999,julian.lyman@reddiff.com,0481 002 659,(03) 3039 3071,345-8931 Quam Rd.|VIC|1987|Australia,sed.turpis@sedtortorInteger.ca,145.32267,-38.0143,
Pharmacies,Advantage Pharmacy Seymour,31-33,Seymour,VIC,3660,Australia,(03) 5792 1575,fiona.rees@reddiff.com,0420 532 139,(03) 3591 9402,"P.O. Box 710, 296 Fringilla St.|NSW|3611|Australia",egestas.hendrerit@felis.ca,145.14013,-37.02644,
Pharmacies,Advantage Pharmacy Watsonia,83 Watsonia Rd,Watsonia,VIC,3087,Australia,(03) 9435 2904,alan.sharp@reddiff.com,0464 601 382,(03) 8111 8268,"Ap #429-1889 Ac, Ave|NSW|9775|Australia",risus@vitaeorci.net,145.08255,-37.70938,
Pharmacies,AFS Pharmacies,Cnr Cambridge & Bolsover Sts,South Rockhampton,QLD,4700,Australia,(07) 4927 6343,rachel.thomson@reddiff.com,0440 736 997,(03) 0732 8956,"P.O. Box 965, 8132 Pellentesque St.|WA|8550|Australia",ut.mi.Duis@risus.org,150.506712,-23.382438,
Pharmaceutical Products--W'salers & Mfrs,AFT Pharmaceuticals Pty Ltd,Level 1/ 296 Burns Bay Rd,Lane Cove,NSW,2066,Australia,(02) 9420 0420,gabrielle.avery@reddiff.com,0419 545 992,(03) 0395 7097,308-3681 Lacinia Avenue|SA|6389|Australia,sit@elitsed.net,151.150576,-33.820403,
Pharmacies,Agapy Pharmacy,Shp 5/ 266 Princes Hwy,Sylvania,NSW,2224,Australia,(02) 9522 7732,gabrielle.ellison@reddiff.com,0444 276 318,(03) 9860 1739,"Ap #123-828 Non, Ave|QLD|9291|Australia",lorem.eget@Craseutellus.co.uk,151.0947,-34.01409,
Pharmacies,Agnes Water Pharmacy,Agnes Water Shopping Centre,Agnes Water,QLD,4677,Australia,(07) 4974 9700,hannah.butler@reddiff.com,0429 124 423,(03) 6791 3547,8023 Semper Avenue|VIC|5299|Australia,mi@velitegestas.edu,151.90177,-24.21342,
Pharmacies,Ainslie PharmaSave Compounding Chemist,Ainslie Shopping Cntr 17 Edgar St,Ainslie,ACT,2602,Australia,(02) 6248 7708,jonathan.ball@reddiff.com,0430 546 742,(03) 8356 3483,"P.O. Box 633, 434 Arcu. Av.|SA|5978|Australia",sit.amet.luctus@turpis.net,149.145187,-35.26162,
Pharmacies,Ainslie; Pharmacy,"17 Edgar Street, AinslieShopping Centre",Ainslie,ACT,2602,Australia,(02) 6248 7708,andrew.howard@reddiff.com,0483 156 860,(03) 9332 9567,Ap #991-9811 Arcu. Av.|TAS|9936|Australia,nec.tellus@rutrumFusce.net,149.145187,-35.26162,
Pharmacies,Airds Village Pharmacy,Riverside Drv,Airds,NSW,2560,Australia,(02) 4625 4303,faith.burgess@reddiff.com,0424 138 475,(03) 6028 9902,"P.O. Box 467, 4720 Pellentesque, St.|WA|3157|Australia",faucibus@eget.com,150.832094,-34.087652,
Pharmacies,Airport Guardian Pharmacy,Shop 11 Sydney Domestic Terminal 2,Mascot,NSW,2020,Australia,(02) 9700 9666,amy.parsons@reddiff.com,0422 319 033,(03) 4447 0817,3518 Nunc. Street|QLD|8592|Australia,hymenaeos.Mauris@tortoratrisus.com,151.210164,-33.902349,
Hospital Equipment & Supplies,A E Atherton & Sons Pty Ltd,11 Port Wakefield,Gepps Cross,SA,5094,Australia,(08) 8262 9044,sean.scott@reddiff.com,0463 988 603,(03) 8664 4798,9953 Urna. Street|QLD|8136|Australia,dolor@Suspendissealiquet.co.uk,138.5986,-34.84588,
Hospitals--Public,A Party World,629 Lower North East Rd,Campbelltown,SA,5074,Australia,(08) 8365 1999,colin.morgan@reddiff.com,0420 191 590,(03) 8840 8805,4594 Facilisis St.|WA|4901|Australia,dignissim.lacus.Aliquam@diameu.com,138.66385,-34.87719,
Hospital Equipment & Supplies,A.B.C. Of Signs,,Yarrambat,VIC,3091,Australia,,lucas.sharp@reddiff.com,0418 353 036,(03) 0062 8401,2957 Bibendum Avenue|NT|7743|Australia,lacinia.at.iaculis@tinciduntnibhPhasellus.net,145.132637,-37.637706,
Hospital Equipment & Supplies,AA Hospital Equipment Co,30 Belu Dr,Glenmore Park,NSW,2745,Australia,(02) 9748 4778,james.cornish@reddiff.com,0415 694 734,(03) 8736 1342,Ap #171-9743 Ipsum. Avenue|ACT|1122|Australia,Phasellus.dolor.elit@velarcu.edu,150.672409,-33.789449,
Hospital Equipment & Supplies,AA Maroondah Home Healthcare,34 Railway Ave,Ringwood East,VIC,3135,Australia,(03) 9879 8885,james.cornish@reddiff.com,0443 399 842,,"P.O. Box 418, 288 Malesuada St.|ACT|6288|Australia",vitae@tellus.edu,145.24899,-37.81284,
Hospital Equipment & Supplies,Abbott Australasia Pty Ltd,666 Doncaster Rd,Doncaster,VIC,3108,Australia,(03) 9843 7100,facilisis.facilisis.magna@vulputate.co.uk,0479 884 710,,4249 Penatibus Ave|TAS|9750|Australia,enim.gravida.sit@sit.com,145.12935,-37.78774,
Hospital Equipment & Supplies,Able Service,Unit 4/ 16 Dividend St,Mansfield,QLD,4122,Australia,(07) 3349 2555,sed.pede@nunc.ca,0471 085 594,,4244 Penatibus Ave|TAS|9750|Australia,lorem.Donec@Uttinciduntorci.org,153.1034,-27.53182,
Hospital Equipment & Supplies,Abletec Solutions,PO Box 210,Kingsway,WA,6065,Australia,(08) 9409 4150,dui@mollis.net,0441 419 931,,305-510 Rhoncus Street|SA|4628|Australia,Morbi@amet.ca,115.866258,-31.813168,
Hospitals--Public,Aboriginal Health,Morrison St,Camooweal,QLD,4828,Australia,(07) 4748 2000,justo.Praesent.luctus@elit.com,0465 109 918,,212-3976 Accumsan Rd.|NT|3417|Australia,Donec.felis@lobortisrisusIn.com,138.120597,-19.919578,
Hospital Equipment & Supplies,Acetek Systems Pty Ltd,Unit 1/ 105 Derby St,Silverwater,NSW,1811,Australia,(02) 8748 9000,eu.accumsan@nuncQuisqueornare.co.uk,0477 332 838,,"P.O. Box 393, 9572 Sed Rd.|QLD|7066|Australia",auctor@dolor.edu,151.03811,-33.83333,
Hospital Equipment & Supplies,Acetek Systems Pty Ltd,Unit 1/ 105 Derby St,Silverwater,NSW,2264,Australia,(02) 8748 9000,neque@Nam.co.uk,0453 263 975,,"P.O. Box 891, 786 Velit. Av.|NSW|6154|Australia",ridiculus.mus@Vestibulumaccumsan.ca,151.038108,-33.833325,
Hospital Equipment & Supplies,Ackermann,Unit 3/ 29 Mitchell Rd,Brookvale,NSW,2100,Australia,(02) 9939 0933,libero.est@elitpellentesque.co.uk,0414 405 915,,3226 Tincidunt Rd.|NSW|5575|Australia,et@ornareegestasligula.net,151.27457,-33.76479,
Hospital Equipment & Supplies,Ackermann,15 Harker St,Burwood,VIC,3125,Australia,(03) 9889 8833,gravida.Aliquam@purusmaurisa.ca,0410 199 565,,478 Massa. Ave|WA|2809|Australia,Lorem.ipsum.dolor@Sedpharetrafelis.org,145.10444,-37.85337,
Hospital Equipment & Supplies,Acrovyn Wall Protection Systems,1 Endeavour Rd,Caringbah,NSW,2229,Australia,(02) 8543 4000,eu.accumsan@amet.co.uk,0492 472 991,,Ap #319-3206 Donec Rd.|VIC|4090|Australia,Duis.gravida@Aliquam.co.uk,151.13027,-34.03165,
Hospital Equipment & Supplies,Active Rehabilitation Equipment,78 Beischer St,Bendigo East,VIC,3550,Australia,(03) 5441 8722,ipsum@Quisquenonummyipsum.ca,0418 841 340,,"P.O. Box 352, 4413 Id Ave|VIC|3612|Australia",convallis.convallis@infelis.com,144.30771,-36.75102,
Hospitals--Private,Adelaide Clinic,33 Park Tce,Gilberton,SA,5081,Australia,(08) 8269 8100,eu.elit@Pellentesque.ca,0481 805 814,,Ap #728-1210 Mi Avenue|WA|7734|Australia,et.ipsum.cursus@est.net,138.61373,-34.90647,
Hospitals--Private,Adelaide Day Surgery,18 North Tce,Adelaide,SA,5000,Australia,(08) 8239 4900,sociis.natoque.penatibus@viverra.ca,0418 487 832,,Ap #601-5027 Nam Rd.|NT|8195|Australia,et@vitaesemperegestas.ca,138.58887,-34.92264,
Hospital Equipment & Supplies,ADL Health Pty Ltd,Unit 1/ 3 Virgil St,Hyde Park,QLD,4812,Australia,(07) 4772 0066,odio@lobortisquama.edu,0406 844 243,,"P.O. Box 844, 1722 Sodales St.|QLD|4686|Australia",nibh.enim@congue.edu,146.7939,-19.27285,
Hospital Equipment & Supplies,Admed Hospital Supplies Pty Ltd,4 Noonan Pl,Ingleburn,NSW,1890,Australia,1300 133 120,adipiscing.Mauris@estconguea.com,0403 377 111,,8185 Ipsum Rd.|SA|7510|Australia,arcu.iaculis.enim@enim.co.uk,150.86234,-33.98851,
Hospital Equipment & Supplies,Adteck Pty Ltd,U 3c/ 13 Forrester St,Kingsgrove,NSW,2208,Australia,(02) 9554 3222,lectus@elitdictum.ca,0413 280 543,,"P.O. Box 658, 2146 Nascetur Av.|VIC|8630|Australia",nec.tellus@maurisa.org,151.0973,-33.93887,
Hospital Equipment & Supplies,Advanced Electronic Services,20 Mulsanne Way,Warranwood,VIC,3134,Australia,(03) 9879 0562,in@sapienAenean.co.uk,0487 228 667,,Ap #425-8012 Et Road|QLD|3388|Australia,diam.Pellentesque.habitant@ante.com,145.24302,-37.77434,
Hospital Equipment & Supplies,Advanced Healthcare Furniture,28 Partridge Crs,Frankston,VIC,3199,Australia,(03) 9770 9011,leo.Vivamus@posuereatvelit.org,0411 094 229,,"P.O. Box 635, 9457 At, Rd.|NSW|1269|Australia",justo@Suspendisse.org,145.15508,-38.17278,
Hospital Equipment & Supplies,Air Liquide Healthcare,25 Campbell St,Bowen Hills,QLD,4006,Australia,1300 360 202,Nam@ridiculusmus.org,0449 688 782,,Ap #444-4253 Turpis St.|TAS|3771|Australia,leo.elementum.sem@inconsequat.com,153.03677,-27.44741,
Hospital Equipment & Supplies,Air Liquide Healthcare,40 Bunnett St,Sunshine North,VIC,3020,Australia,1300 360 202,accumsan@aliquetvelvulputate.org,0441 475 760,,524-7855 Eget Rd.|TAS|7255|Australia,nunc.Quisque.ornare@vel.co.uk,144.84239,-37.76313,
Hospital Equipment & Supplies,Air Liquide Healthcare,600 Goodwood Rd,Daw Park,SA,5041,Australia,1300 360 202,malesuada@sapienNunc.org,0462 178 384,,Ap #800-4300 Convallis Av.|SA|9087|Australia,non.lobortis@fringillaest.co.uk,138.591974,-34.98224,
Hospital Equipment & Supplies,Air Liquide Healthcare Pty Ltd,Suite 9/ 9 Scott St,Toowoomba,QLD,4350,Australia,(07) 4639 4844,vel@dignissimmagnaa.org,0401 970 788,,"P.O. Box 537, 4082 Nulla Avenue|NT|3698|Australia",Maecenas.mi@turpis.com,151.973789,-27.565943,
Hospital Equipment & Supplies,Akras Engineering,21 Union Rd,Dandenong,VIC,3175,Australia,(03) 9794 7887,nec@Integeridmagna.ca,0450 610 867,,Ap #638-9786 Imperdiet Ave|NSW|6363|Australia,purus@congue.com,145.20466,-38.00755,
Hospitals--Public,Albany Regional Hospital,Warden Ave,Albany,WA,6330,Australia,(08) 9892 2222,fermentum.arcu@non.edu,0476 344 507,,"200-8199 Sed, Road|ACT|2773|Australia",tortor@mus.com,117.904479,-35.004791,
Hospitals--Private,Albert Road Clinic,31- 33 Albert Rd,Melbourne,VIC,3004,Australia,(03) 9256 8311,adipiscing@dolor.com,0418 557 349,,"P.O. Box 730, 7492 Dictum Avenue|WA|6704|Australia",massa.rutrum@scelerisquesed.net,144.972465,-37.834448,
Hospitals--Public,Albury Base Hospital,Borella Rd,Albury,NSW,2640,Australia,(02) 6058 4444,Sed.eu@elitEtiamlaoreet.ca,0435 809 771,,"P.O. Box 566, 7378 Aliquam Road|NSW|6807|Australia",egestas@tinciduntdui.net,146.925953,-36.075237,
Hospitals--Private,Albury Day Surgery,4 Baker Crt,West Albury,NSW,2640,Australia,(02) 6041 1511,ultrices@mauris.co.uk,0463 684 602,,4316 Dapibus Street|NT|8398|Australia,justo.Praesent.luctus@massaQuisque.edu,146.88357,-36.07366,
Hospitals--Private,Albury Wodonga Private Hospital,1125 Pemberton St,Albury,NSW,2640,Australia,(02) 6041 1411,tortor.dictum@semut.com,0433 880 523,,5482 Elit. Ave|SA|7557|Australia,blandit.viverra@imperdietdictum.org,146.88308,-36.07482,
Hospital Equipment & Supplies,Alert Tech Pty Ltd,,Noble Park,VIC,3174,Australia,1300 885 147,cursus.Integer@sit.net,0413 094 237,,595-2914 Pede. St.|NT|6529|Australia,suscipit@ligulaDonec.ca,145.173793,-37.970061,
Hospitals--Public,Alexandra District Hospital,Myrtle St,Alexandra,VIC,3714,Australia,(03) 5772 0900,a@Inlorem.ca,0437 038 562,,630-8019 Luctus Av.|NT|9964|Australia,Vivamus@non.ca,145.714853,-37.194562,
Hospitals--Public,Alfred Hospital,Commercial Rd,Prahran,VIC,3181,Australia,(03) 9276 2000,dis.parturient@purusmaurisa.net,0488 629 833,,Ap #755-8045 Ullamcorper. St.|WA|7793|Australia,Proin.ultrices@quisdiamluctus.edu,144.989584,-37.846272,
Hospitals--Private,Alice Springs Renal Unit,PO Box 4452,Alice Springs,NT,870,Australia,(08) 8955 4900,Phasellus.in.felis@sollicitudina.edu,0446 417 551,,Ap #616-4162 Consequat Rd.|SA|9841|Australia,Vivamus@libero.edu,133.87823,-23.698143,
Hospitals--Private,Alkira Hostel,35 Marquis St,Gunnedah,NSW,2380,Australia,(02) 6742 4333,felis.purus.ac@luctusaliquet.ca,0408 051 589,,Ap #825-1754 Nisl. Road|QLD|7413|Australia,egestas.a.dui@orci.org,150.25167,-30.98215,
Hospitals--Private,Allamanda Dialysis Centre,Top Floor Allamanda Medical Centre 25 Spendelove St,Southport,QLD,4215,Australia,(07) 5519 1400,Donec.egestas.Aliquam@Etiam.ca,0446 929 507,,Ap #447-6717 Quam Ave|WA|8121|Australia,elementum@fringillacursuspurus.edu,153.407883,-27.973187,
Hospitals--Private,Allamanda Private Hospital,21 Spendelove St,Southport,QLD,4215,Australia,(07) 5532 6444,nonummy@cursusvestibulum.ca,0467 417 516,,Ap #379-5190 Etiam Av.|TAS|1493|Australia,imperdiet@metusurna.edu,153.408028,-27.973214,
Hospitals--Private,Allowah Children's Hospital,8 Perry St,Dundas,NSW,2117,Australia,(02) 9858 4994,magna.malesuada.vel@Vivamussit.co.uk,0416 310 828,,969-3736 Ligula Ave|QLD|9377|Australia,amet@convallisdolor.co.uk,151.06389,-33.79183,
Hospitals--Public,Alpha Hospital,Gordon St,Alpha,QLD,4724,Australia,(07) 4985 1100,Sed@semperNamtempor.ca,0411 653 277,,"Ap #886-1857 Purus, Rd.|QLD|6746|Australia",diam.vel@odiovelest.org,146.636072,-23.654304,
Hospital Equipment & Supplies,Alpha Medical Supplies Imports Pty Ltd,"Unit 4, 332- 334 Main Rd",Glenorchy,TAS,7010,Australia,(03) 6273 1091,placerat.velit.Quisque@neque.net,0490 482 194,,891-5212 Condimentum Road|SA|4982|Australia,Suspendisse.tristique@vitaediamProin.net,147.27928,-42.83397,
Hospitals--Public,Alpine Health,30 O'Donnell Ave,Myrtleford,VIC,3737,Australia,(03) 5751 9300,sagittis@velit.edu,0471 315 131,,"P.O. Box 181, 6278 Hendrerit Road|ACT|9164|Australia",tortor@consectetueradipiscingelit.net,146.72757,-36.554522,
Hospitals--Private,Alvan Park Private Hospital,14 Alvan St,Mt Lawley,WA,6050,Australia,(08) 9370 2500,aliquet@sed.co.uk,0422 165 601,,9313 Aenean Avenue|NSW|7186|Australia,dis.parturient.montes@Vivamus.edu,115.874596,-31.934476,
Hospitals--Private,Alwyn Rehabilitation Hospital,1 Emu St,Strathfield,NSW,2135,Australia,(02) 9744 7161,at.egestas.a@imperdietornare.org,0462 451 333,(02) 8745 2250,840 In Rd.|ACT|2732|Australia,lacus.Mauris@loremsemper.ca,151.09435,-33.88285,
Hospital Equipment & Supplies,Ames Medical Equipment Specialists Pty Ltd,99 Campbell St,Hobart,TAS,7000,Australia,(03) 6231 5884,dictum.augue.malesuada@pharetrafelis.ca,0484 333 414,,Ap #402-2864 Sit St.|SA|7814|Australia,mauris.Integer.sem@mollisDuis.ca,147.32794,-42.87722,
Hospital Equipment & Supplies,Anaequip Medical Pty Ltd,Unit 6/ 28 Heath St,Lonsdale,SA,5160,Australia,(08) 8382 4855,amet@Sedegetlacus.co.uk,0429 258 261,,"P.O. Box 433, 5743 Nibh Rd.|TAS|5474|Australia",quam.vel.sapien@congue.org,138.5039,-35.11367,
Hospitals--Private,Anaster Residential Care,47 Glen Osmond Rd,Eastwood,SA,5063,Australia,(08) 8271 0264,sodales@cursusdiamat.com,0466 407 849,,Ap #286-5790 Libero Rd.|VIC|8862|Australia,quam.quis@bibendumDonec.com,138.62006,-34.94275,
Hospitals--Private,Andrea Ahern Private Hospital,96 Berrburrum St,Caloundra,QLD,4551,Australia,(07) 5491 1522,nec.ligula@accumsan.org,0402 007 776,,"P.O. Box 191, 4168 Fames Ave|ACT|7213|Australia",lectus.pede.et@ligulaAliquamerat.co.uk,153.12628,-26.78305,
Hospitals--Public,Angliss Hospital,Albert St,Upper Ferntree Gully,VIC,3156,Australia,(03) 9764 6111,Cras.convallis@congueturpisIn.co.uk,0435 721 352,,396-7530 Mauris Rd.|NT|3078|Australia,at.egestas.a@vulputateposuere.edu,145.314084,-37.899476,
Hospitals--Public,Angliss Hospital,Albert St,Ferntree Gully,VIC,3156,Australia,(03) 9764 6111,nisi.Cum@cursus.edu,0445 030 952,,192-9072 Erat. St.|WA|7145|Australia,Etiam.vestibulum@eratsemper.edu,145.314084,-37.899476,
Hospitals--Public,Anne Caudle Centre Campus,100 Barnard St,Bendigo,VIC,3550,Australia,(03) 5454 6000,convallis@nibh.edu,0441 828 867,,845-8312 Orci Av.|WA|3751|Australia,sodales.at@elementumsem.co.uk,144.28034,-36.75089,
Hospitals--Public,Apollo Bay Otway Health & Community Service,McLachlan St,Apollo Bay,VIC,3233,Australia,(03) 5237 8500,vitae.diam.Proin@sed.edu,0414 079 671,,573-7137 Mi Street|VIC|7790|Australia,Vestibulum@Donecnibh.edu,143.664487,-38.755234,
Hospitals--Public,Aramac Hospital,Lodge St,Aramac,QLD,4726,Australia,(07) 4651 3366,varius.orci@iaculisnec.co.uk,0461 673 190,,"P.O. Box 184, 8540 Felis St.|VIC|1216|Australia",lacinia.Sed@sem.edu,145.248186,-22.964477,
Hospitals--Public,Ararat & District Hospital,Girdlestone St,Ararat,VIC,3377,Australia,(03) 5352 9300,dignissim@tellusAenean.co.uk,0477 308 903,,Ap #388-8144 Tortor Av.|ACT|9869|Australia,elementum.purus.accumsan@sapienCras.net,142.933116,-37.279612,
Hospitals--Private,Ardrossan Community Hospital,37 Fifth St,Ardrossan,SA,5571,Australia,(08) 8837 3021,nec.tellus.Nunc@semperpretium.edu,0466 692 137,,"P.O. Box 528, 8190 Montes, Ave|WA|8717|Australia",tincidunt@necenim.co.uk,137.91721,-34.4263,
Hospital Equipment & Supplies,ArjoHuntleigh,"Unit 1, 205 Queensport Rd North",Murarrie,QLD,4172,Australia,1800 072 040,lobortis@parturient.edu,0491 221 711,,893-3905 Ipsum Road|SA|6897|Australia,hendrerit@lacusMauris.ca,153.108088,-27.452748,
Hospital Equipment & Supplies,ArjoHuntleigh,"Unit 6, 4 Avenue Of Americas",Newington,NSW,2127,Australia,1800 072 040,pede.Nunc@ultriciessem.co.uk,0437 366 946,,5396 Urna. Rd.|SA|4921|Australia,fringilla.purus.mauris@lacus.co.uk,115.900946,-32.070658,
Hospital Equipment & Supplies,ArjoHuntleigh,78 Forsyth St,O'Connor,WA,6163,Australia,1800 072 040,Nam@cursusluctus.net,0414 229 115,,"P.O. Box 148, 4033 Pharetra Ave|NT|9789|Australia",justo.Proin@egestas.com,115.787201,-32.056401,
Hospital Equipment & Supplies,ArjoHuntleigh,"Unit 10, 1866 Princes Hwy",Clayton,VIC,3168,Australia,1800 072 040,sem.vitae@pulvinararcu.net,0414 639 402,,975-1123 Odio. St.|QLD|9063|Australia,eleifend.egestas.Sed@pede.ca,145.137592,-37.921184,
Health and Fitness Centres and Services,123 Express Pty Ltd,2 Tenambit St,East Maitland,NSW,2323,Australia,(02) 4933 1232,eu@etnetuset.co.uk,0448 565 870,,849-7974 Gravida St.|QLD|7254|Australia,sodales@gravidaPraesenteu.ca,151.60132,-32.75036,
Health and Fitness Centres and Services,1Body1Life,6 Shellcove Crt,Blacks Beach,QLD,4740,Australia,,Etiam.ligula.tortor@magnaNam.org,0413 464 113,,"P.O. Box 519, 2721 Sed Ave|NT|8752|Australia",porttitor@molestiearcuSed.net,149.184679,-21.052204,
Health and Fitness Centres and Services,2 Good Personal Trainers Pty Ltd,679 Chapel St,South Yarra,VIC,3141,Australia,(03) 9804 5999,libero.lacus.varius@molestieintempus.com,0447 338 433,,"P.O. Box 724, 7516 Cum St.|NSW|2654|Australia",rutrum.non.hendrerit@dapibus.net,144.996336,-37.835901,
Health and Fitness Centres and Services,24 Hour Gym,47 Torquay Rd,Hervey Bay,QLD,4655,Australia,1300 244 749,sed.pede.nec@infelisNulla.ca,0423 267 573,,2229 Nunc Ave|NSW|2099|Australia,non.magna.Nam@maurisanunc.edu,152.84434,-25.284239,
Health and Fitness Centres and Services,24/7 Power Fitness,Suite 2/ 38 Main St,Ellenbrook,WA,6069,Australia,(08) 6363 5830,sed@Donecelementum.co.uk,0414 225 132,,596 Curabitur Road|QLD|9488|Australia,lectus.justo@felisadipiscingfringilla.org,115.966825,-31.781859,
Health and Fitness Centres and Services,24/7 Power Fitness,Unit 3/ 637 Wanneroo Rd,Wanneroo,WA,6065,Australia,(08) 9206 3205,nunc.risus@eleifend.com,0443 442 361,,914-7092 Sit Av.|NT|7215|Australia,non.arcu.Vivamus@Cumsociis.org,115.808208,-31.778644,
Health and Fitness Centres and Services,24/7 Power Fitness,1897 Albany Hwy,Maddington,WA,6109,Australia,(08) 9493 2933,condimentum@magna.ca,0422 440 081,,Ap #959-1949 Dictum Road|VIC|8923|Australia,ac.mi.eleifend@tinciduntpedeac.edu,115.996316,-32.06087,
Health and Fitness Centres and Services,3 Dimensional Personal Training,185 Station St,Aspendale,VIC,3195,Australia,(03) 9587 5594,sodales.purus@quismassa.net,0400 475 270,,543 Est Rd.|SA|6751|Australia,ac@sitamet.edu,145.10641,-38.03354,
Health and Fitness Centres and Services,3 Golden Keys,2/ 50 Upper Heidelberg Rd,Ivanhoe,VIC,3079,Australia,(08) 9499 3283,sagittis.semper.Nam@Vestibulum.ca,0498 099 508,,"P.O. Box 434, 160 Eu Ave|QLD|6615|Australia",et.eros@porttitorvulputateposuere.net,145.041293,-37.770926,
Health and Fitness Centres and Services,360 Fitness Club,Belmore St,West Tamworth,NSW,2340,Australia,(02) 6762 3639,luctus.ut.pellentesque@sitamet.net,0464 726 897,,2278 Sit Avenue|ACT|8769|Australia,pede.Suspendisse@uteros.edu,150.918052,-31.097417,
Health and Fitness Centres and Services,360 Fitness Club,Belmore St,West Tamworth,NSW,2340,Australia,(02) 6762 3639,ultricies@Nullamlobortisquam.net,0486 995 370,,Ap #668-6215 Bibendum St.|NT|9766|Australia,vehicula.aliquet.libero@Vivamus.co.uk,150.918052,-31.097417,
Health and Fitness Centres and Services,4 in 1 Fitness @ Erina,315 The Entrance Rd,Erina,NSW,2250,Australia,(02) 4367 7922,cubilia@id.edu,0444 629 622,,Ap #232-7542 Quam Rd.|QLD|8347|Australia,ac.eleifend.vitae@Nullaeuneque.ca,151.39367,-33.428207,
Health and Fitness Centres and Services,4 in 1 Fitness Diggers at the Entrance,310 The Entrance Rd,The Entrance North,NSW,2261,Australia,(02) 4333 1441,et@augueid.co.uk,0475 181 290,,230-8012 Pretium Rd.|VIC|4819|Australia,Aenean@tincidunttempus.org,151.48609,-33.35788,
Health and Fitness Centres and Services,40 Plus Health Clubs,Suite 1/ 80 Morissett Street,Queanbeyan,NSW,2620,Australia,,Cras.eu.tellus@Etiamimperdietdictum.net,0482 646 248,,"P.O. Box 373, 1670 Dolor Street|WA|2071|Australia",turpis.vitae.purus@massaMauris.ca,149.238191,-35.348876,
Health and Fitness Centres and Services,4Tune8 Personal Fitness,,Caloundra,QLD,4551,Australia,(07) 5499 6819,tortor.Integer@maurisid.org,0428 360 154,,Ap #477-7658 Mattis. Road|TAS|4586|Australia,tristique@egetmagnaSuspendisse.net,153.129571,-26.800622,
Health and Fitness Centres and Services,4U Health & Fitness,312 Gregory St West,Wendouree,VIC,3355,Australia,(07) 8956 6819,risus.a.ultricies@convallis.co.uk,0427 541 163,,101-2199 Interdum Street|SA|6241|Australia,malesuada@Donec.org,143.849374,-37.544165,
Health and Fitness Centres and Services,50 Plus Fitness Pty Ltd,5 Chataway St,Murgon,QLD,4605,Australia,(07) 0325 6819,lorem.eget.mollis@malesuadavelconvallis.co.uk,0427 501 984,,"Ap #629-666 In, St.|QLD|3265|Australia",id@vulputatemauris.co.uk,151.94432,-26.24182,
Health and Fitness Centres and Services,6 Degrees South Health & Fitness,Level 2/ 207 Glen Huntly Rd,Elsternwick,VIC,3185,Australia,(07) 5499 8920,In.faucibus.Morbi@dictumPhasellus.co.uk,0456 363 642,,6150 Molestie Road|NSW|2200|Australia,eu.turpis.Nulla@vitae.co.uk,144.99777,-37.88354,
Health and Fitness Centres and Services,8 Limbs Ashtanga Yoga,,Leederville,WA,6007,Australia,(07) 5499 0145,sit.amet.consectetuer@acorci.co.uk,0404 120 409,,"P.O. Box 644, 738 Parturient St.|VIC|9868|Australia",ligula.Nullam@Integer.net,115.841246,-31.931857,
Health and Fitness Centres and Services,826 XRCIZ,,Kingower,VIC,3517,Australia,,tincidunt.vehicula.risus@egestasAliquamfringilla.org,0409 272 709,,"Ap #164-5615 Id, Rd.|ACT|9512|Australia",eu.enim@porttitortellus.com,143.7597,-36.605,
